X,Y,NOMBRE,CALLE,ALTURA,REPRES_TEC,TELEFONO,MAIL,NOM_GEO,COMUNAS,BARRIOS,SUMI_ELECT,POBLAC,GRUP_ELECT,SUMINISTR,ID
-58.4697984081768,-34.6000214816507,RES. 12 DE OCTUBRE DE NORMA ADRIANA SOLARI,12 DE OCTUBRE,"1665",ROMAGNOLI,"4301-6695;155-248-7652",gustavojromagnoli@speedy.com.ar,1665 12 DE OCTUBRE,Comuna 15,Paternal,Edesur,,,,"1"
-58.4101202826349,-34.6277420727587,HOGAR ENTRE AMIGOS,24 DE NOVIEMBRE,"1421",GRIFFO MATIAS NICOLAS,155-339-2274,mgriffo_2000@yahoo.com,1421 24 DE NOVIEMBRE,Comuna 3,San Cristobal,Edesur,,,CAMBIO DE REPRESENTANTE TÉCNICO,"2"
-58.4522296188519,-34.5590565206147,CLUB RES.L FLOR DE LIS,3 DE FEBRERO,2115/21,ALIMENA EDUARDO NAHUEL,154-421-9217,"nahuel@alimena.com.ar, lauraperezarias@sion.com",2115/21 3 DE FEBRERO,Comuna 13,Belgrano,Edenor,,,,"3"
-58.4246163548119,-34.6143681265097,OMEGA III S.R.L.,33 ORIENTALES,78/82,ADRIANA MU¥IZ,"1561554283",aimuniz@hot.mail.com,78/82 TREINTA Y TRES ORIENTALES,Comuna 5,Almagro,Edesur,,,,"4"
-58.4412173908814,-34.5984672754053,STELLA MARIS,ACEVEDO,356/360,CUENCA GUILLERMO JUAN,4797-8032,guillermocuenca@gmail.com,356/360 ACEVEDO,Comuna 15,Villa Crespo,Edesur,,,,"5"
-58.4346234550286,-34.5941752624418,GER. LA CASA DE LA BOBE,ACEVEDO,"950",CERVERA ROBERTO HUGO,4545-7331,r_cervera@yahoo.com,950 ACEVEDO,Comuna 15,Villa Crespo,Edesur,"22",NO,,"6"
-58.4472952435988,-34.6320291550646,MEDALLA MILAGROSA,ACHAVAL,"640",CAUMO MARIANO,4632-1736 / 1158,inspeccioninmuebles@yahoo.com.ar,640 ACHAVAL,Comuna 7,Parque Chacabuco,Edesur,,,,"7"
-58.4103233120159,-34.597463028362,RES. GER. STA MARIA DEL BUEN AYRE,AGERO,"1056",LIZASO ESTEBAN,"155-057-4121;4302-3345",hg_argentina@yahoo.com.ar,1056 AGUERO,Comuna 2,Recoleta,Edenor,S/D,NO,,"8"
-58.4474422031449,-34.5694200735466,BELGRANO,AGUILAR,"2438",ADRIANA MU¥IZ,"1561554283",aimuniz@hot.mail.com,2438 AGUILAR,Comuna 13,Colegiales,Edenor,,,,"9"
-58.4997780464237,-34.5724752492996,MACAMAX S.A.,AIZPURUA,"3163",ZWIEBEL MARCELO,47035994/96,info@mzconsultores.com.ar,3163 AIZPURUA,Comuna 12,Villa Urquiza,Edenor,,,,"10"
-58.5012928871915,-34.570751963882,VILLA MAYOR RES. RUBEN S. ROISMAN,AIZPURUA,"3338",FANDI¥O MARTIN SANTIAGO,155-865-7958,msfandino@gmail.com,3338 AIZPURUA,Comuna 12,Villa Urquiza,Edenor,,,,"11"
-58.507346040525,-34.6418765156497,RES. GER. HOGAR DEL CARMEN,ALBARI¥O,356/60/64,GOMEZ DANIEL ALBERTO,"156-553-612; 154-071-6629",gomez_daniel28@yahoo.com.ar,356/60/64 ALBARI¥O,Comuna 10,Villa Luro,Edesur,"41",NO,,"12"
-58.4011767689087,-34.6170742212068,NVOS EMPRENDIMIENTOS ARGENTINOS SRL,ALBERTI,"647",COLLADO RODRIGO,155-893-8506,sanglarcollado@gmail.com,647 ALBERTI,Comuna 3,Balvanera,Edesur,,,CAMBIO DE REPRESENTANTE TÉCNICO,"13"
-58.3981898106673,-34.6335185727512,RES. GER. MI LUGAR,ALBERTI,"2012",COLLADO RODRIGO,155-893-8506,sanglarcollado@gmail.com,2012 ALBERTI,Comuna 4,Parque Patricios,Edesur,,,CAMBIO DE REPRESENTANTE TÉCNICO,"14"
-58.5057618088066,-34.6310327235889,RES. GER. HOGAR AGOSTINA,A. MAGARI¥OS CERVANTES,"5251",CARNEVALE MABEL,5252-0909 / / 1552474239,arquitecta.mc@gmail.com,"5251 MAGARI¥OS CERVANTES, A.",Comuna 10,Villa Luro,Edesur,,,,"15"
-58.4755612191761,-34.6075596985319,LAS MARTAS S.R.L.,ALFREDO BUFANO,"254",MONTIVERO GLADYS EMILIA,,lalyarq@gmail.com,"254 BUFANO, ALFREDO R.",Comuna 11,Villa Gral. Mitre,Edesur,,,,"16"
-58.4558784078561,-34.6164757621492,STELLA MARIS,ALMIRANTE F. J. SEGUI,"768",CERVERA ROBERTO HUGO,4545-7331,r_cervera@yahoo.com,"768 SEGUI, F. J., ALTE.",Comuna 6,Caballito,Edesur,,,CAMBIO DE REPRESENTANTE TÉCNICO,"17"
-58.4594202301638,-34.6095954953328,HOGAR DEL ROSARIO,ALMIRANTE F. J. SEGUI,"1429",PFEFFERMAN RUBEN JULIO,,rup@telecentro.com.ar,"1429 SEGUI, F. J., ALTE.",Comuna 6,Caballito,Edesur,,,,"18"
-58.4907678781048,-34.5772251525384,RES. AMISTADES,ALTOLAGUIRRE,2372/74,MINOTTI CARLOS AGUSTÖN,4523-4889,carlosminotti@yahoo.com.ar,2372/74 ALTOLAGUIRRE,Comuna 12,Villa Urquiza,Edenor,S/D,NO,,"19"
-58.488119630178,-34.5803344943869,RES. GER. SAN EXPEDITO,ALTOLAGUIRRE,"2059",LIZASO ESTEBAN,"155-057-4121;4302-3345",hg_argentina@yahoo.com.ar,2059 ALTOLAGUIRRE,Comuna 12,Villa Urquiza,Edenor,S/D,NO,,"20"
-58.4839673752069,-34.57077082462,INST. GER. IRMA,ALVAREZ THOMAS,"3291",LIZASO ESTEBAN,"155-057-4121;4302-3345",hg_argentina@yahoo.com.ar,3291 ALVAREZ THOMAS AV.,Comuna 12,Villa Urquiza,Edenor,S/D,NO,,"21"
-58.4990297212105,-34.5649809727693,EL HOGAR S.A.,ANDONAEGUI,"3586",PERNOT MARIO,154-147-2650,"ingartec@arnet.com.ar; ingartec@gmail.com",3586 ANDONAEGUI,Comuna 12,Villa Urquiza,Edenor,,,,"22"
-58.4548410478586,-34.6104660928781,RES. PARA MAYORES APRILIS,APOLINARIO FIGUEROA,"1242",ADRIANA MU¥IZ,"1561554283",aimuniz@hot.mail.com,"1242 FIGUEROA, D. APOLINARIO, CORONEL",Comuna 6,Caballito,Edesur,,,,"23"
-58.426938129289,-34.5933062832354,ASOC. HELENICA DE SOCORROS MUTUOS SAN DEMETRIO,ARAOZ,1328/34,LITVAK NESTOR RUBEN,"1552281292",nestor_litvak@yahoo.com.ar,1328/34 ARAOZ,Comuna 14,Palermo,Edenor,,,,"24"
-58.4011921595493,-34.5935094768358,GERIALEPH,ARENALES,"2445",UCAR ALFREDO E.,153-617-3566,aucar32@yahoo.com.ar,2445 ARENALES,Comuna 2,Recoleta,Edesur,,,,"25"
-58.3974685382895,-34.5943624217236,PERCIBIR EL TIEMPO SRL,ARENALES,"2131",MINOTTI CARLOS AGUSTÖN,4523-4889,carlosminotti@yahoo.com.ar,2131 ARENALES,Comuna 2,Recoleta,Edesur,S/D,NO,,"26"
-58.4075212740585,-34.5897317573056,EL VITRAL,ARENALES,"3051",LIZASO ESTEBAN,"155-057-4121;4302-3345",hg_argentina@yahoo.com.ar,3051 ARENALES,Comuna 2,Recoleta,Edesur - Edenor,S/D,NO,,"27"
-58.4936495820735,-34.5984660632414,ARGERICH,ARGERICH,"3258",LIZASO ESTEBAN,"155-057-4121;4302-3345",hg_argentina@yahoo.com.ar,3258 ARGERICH,Comuna 11,Vlla Del Parque,Edesur,S/D,NO,,"28"
-58.4715117065039,-34.6305607430498,"B,O VELAZQUEZ OMAR CITTADINI SOC. DE HECHO",ARGERICH,"46",CARO MARIO DIONISIO,57763475 // 15-4049-9605,"caro@camoar.gov.ar; mariocaro@aol.com.ar",46 ARGERICH,Comuna 7,Flores,Edesur,,,CAMBIO DE REPRESENTANTE TÉCNICO,"29"
-58.4897684557284,-34.6035258750874,RES. GER. JULIA 2,ARGERICH,"2866",BENAVIDEZ SILVIA,"1550574121",hg_argentina@yahoo.com.ar,2866 ARGERICH,Comuna 11,Vlla Del Parque,Edesur,S/D,NO,,"30"
-58.3703896958008,-34.6356626371577,RES. GER. BARRACAS,ARISTOBULO DEL VALLE,"1244",Zabala Chtistian Ram¢n,15-6752-3481/3530-5894,trabajandoconseguridad@gmail.com,"1244 VALLE, ARISTOBULO DEL",Comuna 4,Barracas,Edesur,,,CAMBIO DE REPRESENTANTE TÉCNICO,"31"
-58.4274088800439,-34.5895718990546,CUMELEN,ARMENIA,"1675",ADRIANA MU¥IZ,"1561554283",aimuniz@hot.mail.com,1675 ARMENIA,Comuna 14,Palermo,Edenor,,,,"32"
-58.4932304985625,-34.6097581279867,GER. ARREGUI DE EDUARDO MEZA,ARREGUI,"3516",ROMERO NESTOR DANIEL,"1559619164",nestoromero5@yahoo.com.ar,3516 ARREGUI,Comuna 11,Vlla Del Parque,Edesur,,,,"33"
-58.4817516283981,-34.5819395904912,"DIAZ, TRANSITO MARIA DEL VALLE",ATENAS,"2830",CARNEVALE MABEL,5252-0909 / / 1552474239,arquitecta.mc@gmail.com,2830 ATENAS,Comuna 15,Parque Chas,Edenor,,,,"34"
-58.4377499162602,-34.6150051258545,ACOYTE,AV ACOYTE,"272",PICK PATRICIA,"154-400-0847;4702-6493",patriciapick@fibertel.com.ar,272 ACOYTE AV.,Comuna 6,Caballito,Edesur,,,,"35"
-58.5074095917878,-34.5760683736808,EL REMANSO DE LOS ABUELOS SRL,AV ALBARELLOS,"2673",DEVOTO JORGE DAVID,,jorgedavid.devoto@gmail.com,2673 ALBARELLOS AV.,Comuna 12,Villa Pueyrredón,Edenor,,,,"36"
-58.4479780567726,-34.5817045861293,INST. NTRA SRA. DE LA NIEVES S.R.L,AV ALVAREZ THOMAS,"268",TILL PABLO ELIAS,154-421-6549,pablotill@yahoo.com,268 ALVAREZ THOMAS AV.,Comuna 15,Chacarita,Edenor,,,,"37"
-58.4845344566807,-34.6296647883926,RUBEN CARLOS GENONI,AV AVELLANEDA,"3967",GUELER RUBEN HORACIO,4833-5900,rgueler@ehslatam.com,3967 AVELLANEDA AV.,Comuna 10,Floresta,Edesur,"49",SI,CUBRE LA TOTALIDAD DEL ESTABLECIMIENTO,"38"
-58.4627967345677,-34.6236153339629,RES. OARA LA TERCERA EDAD LA CASONA DE MIS VIEJOS,AV AVELLANEDA,"2258",SOCIN ADRIAN ALDO,"1564487041",adrian_socin@yahoo.com.ar,2258 AVELLANEDA AV.,Comuna 7,Flores,Edesur,"17",SI,CUBRE LA TOTALIDAD DEL ESTABLECIMIENTO,"39"
-58.4312748149273,-34.611384368857,LA MANSIàN,AV AVELLANEDA,"74",GOMEZ DANIEL ALBERTO,"156-553-612; 154-071-6629",gomez_daniel28@yahoo.com.ar,74 AVELLANEDA AV.,Comuna 6,Caballito,Edesur,"31",NO,,"40"
-58.4542685972028,-34.6205189587678,AYGERES S.R.L.,AV AVELLANEDA,"1625",MINOTTI CARLOS AGUSTÖN,4523-4889,carlosminotti@yahoo.com.ar,1625 AVELLANEDA AV.,Comuna 6,Caballito,Edesur,S/D,NO,,"41"
-58.4051142816045,-34.6147108339575,RES. GER. PAUL NIEHANS S.R.L.,AV BELGRANO,"2816",CARNEVALE MABEL,5252-0909 / / 1552474239,arquitecta.mc@gmail.com,2816 BELGRANO AV.,Comuna 3,Balvanera,Edesur,,,,"42"
-58.4164978332321,-34.6205344443712,COPAHUE,AV BOEDO,"664",DI BENEDETTO LUIS ERNESTO,4925-1774,arquidetto@yahoo.com.ar,664 BOEDO AV.,Comuna 5,Almagro,Edesur,S/D,NO,,"43"
-58.4586975426833,-34.6236949431464,GAVILAN ANEXO BOYACA,AV BOYACA,"279",ADRIANA MU¥IZ,"1561554283",aimuniz@hot.mail.com,279 BOYACA AV.,Comuna 7,Flores,Edesur,,,,"44"
-58.4651029756249,-34.6150062044464,ALBERTO ENRIQUE ALIO,AV BOYACA,"1214",MINOTTI CARLOS AGUSTÖN,4523-4889,carlosminotti@yahoo.com.ar,1214 BOYACA AV.,Comuna 11,Villa Gral. Mitre,Edesur,S/D,NO,,"45"
-58.398544509421,-34.6308678162172,GER. VILLAVERDE S.R.L.,AV BRASIL,"2455",GUTIERREZ JORGE EDUARDO,"1534753882",jylasesores@yahoo.com.ar,2455 BRASIL AV.,Comuna 4,Parque Patricios,Edesur,"78",NO,,"46"
-58.4717743706223,-34.5441622447542,RES. CABILDO PAMI,AV CABILDO,"4351",GAETA ALBERTO,"4345-1275 ; 4331-0728,","info@seguridadindustrialsrl.com; lotamendi@seguridadindustrialsrl.com",4351 CABILDO AV.,Comuna 13,Nuñez,Edenor,,,,"47"
-58.439514700286,-34.5728381212448,HOGAR CONSTANZA S.A.,AV CABILDO,"288",MINOTTI CARLOS AGUSTÖN,4523-4889,carlosminotti@yahoo.com.ar,288 CABILDO AV.,Comuna 14,Palermo,Edenor,S/D,SI,"ASCENSORES, LUCES, BOMBAS Y HELADERA","48"
-58.3881919225674,-34.6335621811336,ESTABLECIMIENTO GER. CASEROS,AV CASEROS,"1847",PADILLA JAVIER SANTIAGO,4961-9056,gestion@capacitarweb.com.ar,1847 CASEROS AV.,Comuna 1,Constitución,Edesur,,,,"49"
-58.4062366482539,-34.6371867960151,SAN PATRICIO,AV CASEROS,3031/35,MINOTTI CARLOS AGUSTÖN,4523-4889,carlosminotti@yahoo.com.ar,3031/35 CASEROS AV.,Comuna 4,Parque Patricios,Edesur,S/D,NO,,"50"
-58.4177058688993,-34.6392561616671,GER. CASEROS 3746,AV CASEROS,"3746",CERVERA ROBERTO HUGO,4545-7331,r_cervera@yahoo.com,3746 CASEROS AV.,Comuna 4,Nueva Pompeya,Edesur,"20",NO,,"51"
-58.4230203797721,-34.5753001307433,LE PARC,AV CERVIÑO,"4658",MINOTTI CARLOS AGUSTÖN,4523-4889,carlosminotti@yahoo.com.ar,4658 CERVI¥O AV.,Comuna 14,Palermo,Edenor,S/D,NO,,"52"
-58.4259486338631,-34.6405685381255,ESTABLECIMIENTO GER. LA NONA,AV COBO,683/85,LIZASO ESTEBAN,"155-057-4121;4302-3345",hg_argentina@yahoo.com.ar,683/85 COBO AV.,Comuna 7,Parque Chacabuco,Edesur,S/D,NO,,"53"
-58.4942683847314,-34.5719769282126,RES.  GER. URQUIZA,AV CONGRESO,"5466",LIZASO ESTEBAN,"155-057-4121;4302-3345",hg_argentina@yahoo.com.ar,5466 CONGRESO AV.,Comuna 12,Villa Urquiza,Edenor,S/D,NO,,"54"
-58.4618255611128,-34.5550560564599,NUR SA,AV CONGRESO,"2337",CADEL ANDREA VIVIANA,4780-5554,acadel@hiseca.com.ar,2337 CONGRESO AV.,Comuna 13,Nuñez,Edenor,,,,"55"
-58.4852268036039,-34.5671905990314,GER. SAN AGUSTIN,AV CONGRESO,"4660",CUENCA GUILLERMO JUAN,4797-8032,guillermocuenca@gmail.com,4660 CONGRESO AV.,Comuna 12,Villa Urquiza,Edenor,,,,"56"
-58.4693637635612,-34.5589685145974,CADOR,AV CONGRESO,"3115",COLLADO RODRIGO,155-893-8506,sanglarcollado@gmail.com,3115 CONGRESO AV.,Comuna 12,Coghlan,Edenor,,,CAMBIO DE REPRESENTANTE TÉCNICO,"57"
-58.4262269222918,-34.5965700371071,CALIDAD A LOS A¥OS,AV CORDOBA,"4200",CERVERA ROBERTO HUGO,4545-7331,r_cervera@yahoo.com,4200 CORDOBA AV.,Comuna 15,Villa Crespo,Edesur,"22",NO,,"58"
-58.4040867351922,-34.5796479541293,RES. PALERMO CHICO,AV CNEL DIAZ,3856 /50,SEBASTIAN RUBEN ARGENTINO JOSE,4794-1450/ 15-4-4227668,rubensebastian46@gmail.com,"3856 /50 DIAZ, CNEL. AV.",Comuna 14,Palermo,Edenor,,,,"59"
-58.4677874403397,-34.5572594903072,HOSTAL CRAMER S.R.L.,AV CRAMER,"2966",ROMERO FACUNDO NICOLAS,15-5-6953957,fnromero@ciudad.com.ar,2966 CRAMER AV.,Comuna 13,Nuñez,Edenor,,,,"60"
-58.4451653129381,-34.6375253269154,HOGAR PARA MAYORES SAN PANTALEON,AV CURAPALIGUE,"1316",CASALINUOVO JOSE NICOLAS,4766-4926,jncasalinuovo@hotmail.com,1316 CURAPALIGUE AV.,Comuna 7,Parque Chacabuco,Edesur,,,,"61"
-58.5045499638498,-34.5725456510684,AYELEN,AV DE LOS CONSTITUYENTES,"5933",CERVERA ROBERTO HUGO,4545-7331,r_cervera@yahoo.com,5933 DE LOS CONSTITUYENTES AV.,Comuna 12,Villa Urquiza,Edenor,"28",NO,,"62"
-58.4587646991671,-34.5704824299608,APART INCAS S.A.,AV DE LOS INCAS,"3093",MINOTTI CARLOS AGUSTÖN,4523-4889,carlosminotti@yahoo.com.ar,3093 DE LOS INCAS AV.,Comuna 13,Belgrano,Edenor,S/D,NO,,"63"
-58.42112964821,-34.6086111876256,ALVAREZ Y ARIAS S.R.L.,AV DIAZ VELEZ,"3876",MATEU MARCO,15-31381917,marcomateu@yahoo.com.ar,3876 DIAZ VELEZ AV.,Comuna 5,Almagro,Edesur,,,CAMBIO DE REPRESENTANTE TÉCNICO,"64"
-58.4668124515574,-34.6352694157103,HOGAR ANDREA,AV DIRECTORIO,"2845",CERVERA ROBERTO HUGO,4545-7331,r_cervera@yahoo.com,2845 DIRECTORIO AV.,Comuna 7,Flores,Edesur,"19",NO,,"65"
-58.4433790225424,-34.6294654055109,NTRA SE¥ORA DE LOS MILAGROS,AV DIRECTORIO,"1130",ROMERO NESTOR DANIEL,"1559619164",nestoromero5@yahoo.com.ar,1130 DIRECTORIO AV.,Comuna 7,Parque Chacabuco,Edesur,,,,"66"
-58.4601311291661,-34.633262908959,RES. PARA MAYORES CARPE DIEM,AV DIRECTORIO,"2363",RASTELLI NESTOR,154-4789-660,rastellin@yahoo.com.ar,2363 DIRECTORIO AV.,Comuna 7,Flores,Edesur,,,,"67"
-58.4500527538459,-34.6304610363351,MAITOR S.R.L.,AV DIRECTORIO,"1632",GERLING MARTIN SEBASTIAN,15-6993-3836,msg.safety@gmail.com,1632 DIRECTORIO AV.,Comuna 7,Parque Chacabuco,Edesur,"98",SI,HABITACIONES Y ILUMINACIÓN ÁREAS COMUNES,"68"
-58.4441534146295,-34.6094351051493,REACTIVAR SRL,AV DR. H. PUEYRREDON,"958",CARNEVALE MABEL,5252-0909 / / 1552474239,arquitecta.mc@gmail.com,"958 PUEYRREDON, HONORIO, DR. AV.",Comuna 6,Caballito,Edesur,,,,"69"
-58.4447118752684,-34.6087045856457,EL BUEN PASTOR,AV DR. H. PUEYRREDON,"1026",MINOTTI CARLOS AGUSTÖN,4523-4889,carlosminotti@yahoo.com.ar,"1026 PUEYRREDON, HONORIO, DR. AV.",Comuna 6,Caballito,Edesur,S/D,NO,,"70"
-58.4410828998495,-34.6138789477547,AEROKA SRL,AV DR. H. PUEYRREDON,508/30,CARNEVALE MABEL,5252-0909 / / 1552474239,arquitecta.mc@gmail.com,"508/30 PUEYRREDON, HONORIO, DR. AV.",Comuna 6,Caballito,Edesur,,,,"71"
-58.447725003325,-34.604778475681,ALEJANDRO GUSTAVO BARCALA,AV DR. H. PUEYRREDON,"1388",GOMEZ DANIEL A.,"1540716629",gomez_daniel28@yahoo.com.ar,"1388 PUEYRREDON, HONORIO, DR. AV.",Comuna 15,Villa Crespo,Edesur,"19",NO,,"72"
-58.5099263225976,-34.6494580941244,GER. VERCIAN S.R.L.,AV EMILIO CASTRO,"6262",ROMAGNOLI,"4301-6695;155-248-7652",gustavojromagnoli@speedy.com.ar,"6262 CASTRO, EMILIO AV.",Comuna 9,Mataderos,Edesur,,,,"73"
-58.4470923587124,-34.6345565014052,ZACAVERA,AV EVA PERON,"1665",FIGUEROA Marcelo Hernan,156-159-9601,marherfigueroa@yagoo.com.ar,"1665 PERON, EVA AV.",Comuna 7,Parque Chacabuco,Edesur,,,,"74"
-58.4420183604218,-34.5670832179756,GER. SER VITAL,AV FEDERICO LACROZE,"2074",MINOTTI CARLOS AGUSTÖN,4523-4889,carlosminotti@yahoo.com.ar,"2074 LACROZE, FEDERICO AV.",Comuna 14,Palermo,Edenor,S/D,NO,,"75"
-58.442574432324,-34.5676535142384,CENTRO GER. BELGRANO S.R.L.,AV FEDERICO LACROZE,"2154",CERVERA ROBERTO HUGO,4545-7331,r_cervera@yahoo.com,"2154 LACROZE, FEDERICO AV.",Comuna 14,Palermo,Edenor,"40",NO,,"76"
-58.478491250506,-34.6904837731341,MEGA HOME,AV FERNANDEZ DE LA CRUZ,"6920",CERVERA ROBERTO HUGO,4545-7331,r_cervera@yahoo.com,"6920 FERNANDEZ DE LA CRUZ, F., GRAL. AV.",Comuna 8,Villa Riachuelo,Edesur,"32",NO,,"77"
-58.4801629063352,-34.6234801660316,HOGAR GAONA,AV GAONA,"3947",CASTRO mario gabriel,156-496-6758,castromariog@gmail.com,3947 GAONA AV.,Comuna 11,Villa Santa Rita,Edesur,,,,"78"
-58.4789493626725,-34.5793113205813,RES. NUEVO HOGAR,AV GRAL. B. VICTORICA,"2330",CERVERA ROBERTO HUGO,4545-7331,r_cervera@yahoo.com,"2330 VICTORICA, BENJAMIN, GENERAL, AV.",Comuna 15,Parque Chas,Edenor,"23",NO,,"79"
-58.498026104838,-34.5837675842313,RES. GER. BRISAS,AV GRAL. MOSCONI,"2536",LIZASO ESTEBAN,"155-057-4121;4302-3345",hg_argentina@yahoo.com.ar,2536 MOSCONI GENERAL AV.,Comuna 12,Villa Pueyrredón,Edenor,S/D,NO,,"80"
-58.5287697305831,-34.6438498080981,PATRICIA LEONOR FARIAS,AV GRAL. PAZ,"11000",CALBO PABLO DANIEL,4782-3356     155-503-7304,ingpablocalbo@yahoo.com.ar,"11000 PAZ, GRAL. AV.",Comuna 9,Liniers,Edenor,,,,"81"
-58.4269970892557,-34.614998535202,HOGAR NADIR,AV HIPOLITO YRIGOYEN,4272/74,LIZASO ESTEBAN,"155-057-4121;4302-3345",hg_argentina@yahoo.com.ar,"4272/74 YRIGOYEN, HIPOLITO AV.",Comuna 5,Almagro,Edesur,S/D,NO,,"82"
-58.4017424451059,-34.6187658322576,RES. INDEPENDENCIA,AV INDEPENDENCIA,"2562",GAETA ALBERTO,"4345-1275 ; 4331-0728,","info@seguridadindustrialsrl.com; lotamendi@seguridadindustrialsrl.com",2562 INDEPENDENCIA AV.,Comuna 3,San Cristobal,Edesur,,,,"83"
-58.3832720205141,-34.6178010969299,EL GAUCHITO GIL SRL,AV INDEPENDENCIA,"1220",CASTRO mario gabriel,156-496-6758,castromariog@gmail.com,1220 INDEPENDENCIA AV.,Comuna 1,Constitución,Edesur,,,,"84"
-58.3733565506919,-34.6483179893533,RINCàN DEL SUR,AV IRIARTE,"1756",STEIZEL ARIEL,"1549729889",ariel@gruposh.com.ar,"1756 IRIARTE, GRAL. AV.",Comuna 4,Barracas,Edesur,,,,"85"
-58.423563621517,-34.6059383805389,PARA ADULTOS MAYORES NUEVOS TIEMPOS,AV J.D.PERON,4043/45,ROMAGNOLI,"4301-6695;155-248-7652",gustavojromagnoli@speedy.com.ar,"4043/45 PERON, JUAN DOMINGO, TTE. GENERAL",Comuna 5,Almagro,Edesur,,,,"86"
-58.5074161504333,-34.6009226925266,EST. GER. DE ENRIQUE C. TOPPANO,AV JOAQUIN V. GONZALEZ,"3691",CISNEROS NILDA JUSTA,"1540484958",dalnijc@yahoo.com.ar,"3691 GONZALEZ, JOAQUIN V.",Comuna 11,Villa Devoto,Edesur,,,,"87"
-58.4674096293921,-34.6111233138196,PABLO MANUEL ROSSETTI,AV JUAN B. JUSTO,"4870",GOMEZ DANIEL A.,"1540716629",gomez_daniel28@yahoo.com.ar,"4870 JUSTO, JUAN B. AV.",Comuna 11,Villa Gral. Mitre,Edesur,"21",NO,,"88"
-58.4849546587722,-34.6399029930887,LA FAMILIA,AV JUAN BAUTISTA ALBERDI,4205/09,ABUIN RAéL HECTOR,"1559626013",raul_abuin@yahoo.com.ar,"4205/09 ALBERDI, JUAN BAUTISTA AV.",Comuna 10,Velez Sarsfield,Edesur,,,CAMBIO DE REPRESENTANTE TÉCNICO,"89"
-58.3896498102252,-34.6272612820495,GER. SAN FRANCISCO DE ASIS,AV JUAN DE GARAY,"1714",FEBRERO LUCIANO,15-6471-4621 -  39681325,lucianofebrero@gmail.com,"1714 GARAY, JUAN DE AV.",Comuna 1,Constitución,Edesur,,,,"90"
-58.4033739431722,-34.6194601625257,SAN S.,AV JUJUY,863/67,BOURET CARLOS,4631-8409,cabouret@gmail.com,863/67 JUJUY AV.,Comuna 3,San Cristobal,Edesur,,,,"91"
-58.4028247730133,-34.6212575811666,SHEMESH,AV JUJUY,"1007",COLLADO RODRIGO,155-893-8506,sanglarcollado@gmail.com,1007 JUJUY AV.,Comuna 3,San Cristobal,Edesur,,,CAMBIO DE REPRESENTANTE TÉCNICO,"92"
-58.4848373875544,-34.6373722658225,LA CANELA,AV LACARRA,"206",ROMERO NESTOR DANIEL,"1559619164",nestoromero5@yahoo.com.ar,206 LACARRA AV.,Comuna 10,Velez Sarsfield,Edesur,,,,"93"
-58.4754621471143,-34.6447740593085,GER. NUEVO HORIZONTE,AV LACARRA,"1152",MINOTTI CARLOS AGUSTÖN,4523-4889,carlosminotti@yahoo.com.ar,1152 LACARRA AV.,Comuna 9,Parque Avellaneda,Edesur,S/D,NO,,"94"
-58.4628363241317,-34.6419074904206,ESTABLECIMIENTO GER. LAFUENTE,AV LAFUENTE,961/63,CERVERA ROBERTO HUGO,4545-7331,r_cervera@yahoo.com,961/63 LAFUENTE AV.,Comuna 7,Flores,Edesur,"32",NO,,"95"
-58.5147810533098,-34.599121304668,RES. DE OTO¥O S.R.L.,AV LINCOLN,"4268",FLORIO EDUARDO MARIO,"1544199699",eflorio@arnet.com.ar,4268 LINCOLN AV.,Comuna 11,Villa Devoto,Edesur,,,,"96"
-58.5107329764505,-34.6249189670131,BUENOS AIRES HOME S.R.L.,AV LOPE DE VEGA,1619/21,CARNEVALE MABEL,5252-0909 / / 1552474239,arquitecta.mc@gmail.com,1619/21 LOPE DE VEGA AV.,Comuna 10,Monte Castro,Edesur,,,,"97"
-58.5035551365904,-34.6304074543304,RES. PARA MAYORES SWEET HOME,AV LOPE DE VEGA,930/2,LIZASO ESTEBAN,"155-057-4121;4302-3345",hg_argentina@yahoo.com.ar,930/2 LOPE DE VEGA AV.,Comuna 10,Villa Luro,Edesur,S/D,SI,,"98"
-58.5132201509806,-34.6230118803789,"RES. GER. ""SAN CAYETANO""",AV LOPE DE VEGA,"1847",GREGORIO ANDRES,,info@consultora-crt.com.ar,1847 LOPE DE VEGA AV.,Comuna 10,Monte Castro,Edesur,,,,"99"
-58.508804175203,-34.626526205006,HOGAR GALICIA,AV LOPE DE VEGA,"1444",MIRABITO OMAR HORACIO,"154-408-7170; 4683-6473",omarmirabito@tutopia.com,1444 LOPE DE VEGA AV.,Comuna 10,Villa Luro,Edesur,,,,"100"
-58.4310817291155,-34.5750262147996,RES. CASA AZUL,AV LUIS MARIA CAMPOS,"180",MINOTTI CARLOS AGUSTÖN,4523-4889,carlosminotti@yahoo.com.ar,"180 CAMPOS, LUIS M. AV.",Comuna 14,Palermo,Edenor,S/D,NO,,"101"
-58.489160369629,-34.5759737269896,MONROE,AV MONROE,"5338",HOLM ALEJANDRO EDUAROO,15-5620-5960,ing_holm@yahoo.com,5338 MONROE AV.,Comuna 12,Villa Urquiza,Edenor,,,,"102"
-58.4756144439659,-34.5679420386689,GER. EL SOLAR III,AV MONROE,"4035",CERVERA ROBERTO HUGO,4545-7331,r_cervera@yahoo.com,4035 MONROE AV.,Comuna 12,Villa Urquiza,Edenor,"14",NO,,"103"
-58.4723448144806,-34.6245298830544,SAN GENARO II,AV NAZCA,"663",CARNEVALE MABEL,5252-0909 / / 1552474239,arquitecta.mc@gmail.com,663 NAZCA AV.,Comuna 7,Flores,Edesur,,,,"104"
-58.4276978583027,-34.6252330303401,RES. GER. PEDRO GOYENA,AV PEDRO GOYENA,38/40,PETRYH HORACIO RAMON,1558094153 Nextel ID 642*95,hl.higieneyseguridad@gmail.com,"38/40 GOYENA, PEDRO AV.",Comuna 6,Caballito,Edesur,,,,"105"
-58.451778244163,-34.6283520593867,GER. JHON-JHON,AV PEDRO GOYENA,"1665",NAZARO JUAN JOSE MARIA,155-429-8470,jjnazaro@yahoo.com.ar,"1665 GOYENA, PEDRO AV.",Comuna 6,Caballito,Edesur,,,,"106"
-58.4276438458089,-34.6252275675585,RES. GER. MI NUEVO HOGAR,AV PEDRO GOYENA,"34",ARIAS HORACIO ROBERTO,"1551752748","harias@buenosaires.gov.ar; nmaximino@buenosaires.gov.ar","34 GOYENA, PEDRO AV.",Comuna 6,Caballito,Edesur,,,CAMBIO DE REPRESENTANTE TÉCNICO,"107"
-58.4736517409876,-34.6759230421037,ETERNA S.R.L.,AV RIESTRA,"5540",MINOTTI CARLOS AGUSTÖN,4523-4889,carlosminotti@yahoo.com.ar,5540 RIESTRA AV.,Comuna 8,Villa Lugano,Edesur,S/D,NO,,"108"
-58.4783299007377,-34.6329164215219,RES. GER. SAN NICOLAS,AV RIVADAVIA,8143/47,GOMEZ DANIEL ALBERTO,"156-553-612; 154-071-6629",gomez_daniel28@yahoo.com.ar,8143/47 RIVADAVIA AV.,Comuna 10,Floresta,Edesur,"51",NO,,"109"
-58.5050640383369,-34.6383079155144,LUCAS MARTIN PONTILLO,AV RIVADAVIA,"10040",CLEIMAN DEMIAN,4833-5900,info@ehsweb.com.ar,10040 RIVADAVIA AV.,Comuna 10,Villa Luro,Edesur,,,,"110"
-58.4699672265028,-34.630843725854,INST. GER. SAN JOSE DE FLORES S A,AV RIVADAVIA,"7422",SOUTO EDUARDO,154-141-4077,eduardosouto@speedy.com.ar,7422 RIVADAVIA AV.,Comuna 7,Flores,Edesur,,,CAMBIO DE REPRESENTANTE TÉCNICO,"111"
-58.4188737926848,-34.6110094101274,MONTERREY II,AV RIVADAVIA,"3731",MINOTTI CARLOS AGUSTÖN,4523-4889,carlosminotti@yahoo.com.ar,3731 RIVADAVIA AV.,Comuna 5,Almagro,Edesur,S/D,NO,,"112"
-58.5099368099435,-34.5980998538935,LA MANSIàN DE LAS SIETE ESTRELLAS,AV S. MARIA DEL CARRIL,"3798",LIZASO ESTEBAN,"155-057-4121;4302-3345",hg_argentina@yahoo.com.ar,"3798 CARRIL, SALVADOR MARIA DEL AV.",Comuna 11,Villa Devoto,Edesur,S/D,NO,,"113"
-58.5075938955394,-34.5963796281984,RES GER. ALTOS DEL BOULEVARD,AV S. MARIA DEL CARRIL,"3601",LIZASO ESTEBAN,"155-057-4121;4302-3345",hg_argentina@yahoo.com.ar,"3601 CARRIL, SALVADOR MARIA DEL AV.",Comuna 11,Villa Devoto,Edesur,S/D,SI,,"114"
-58.5138354329154,-34.6002355554655,REMANSO DE TOSO SRL,AV S. MARIA DEL CARRIL,"4151",LIZASO ESTEBAN,"155-057-4121;4302-3345",hg_argentina@yahoo.com.ar,"4151 CARRIL, SALVADOR MARIA DEL AV.",Comuna 11,Villa Devoto,Edesur,S/D,NO,,"115"
-58.5074121131312,-34.596267337194,ALTOS DEL BOULEVARD,AV S. MARIA DEL CARRIL,"3591",LIZASO ESTEBAN,"155-057-4121;4302-3345",hg_argentina@yahoo.com.ar,"3591 CARRIL, SALVADOR MARIA DEL AV.",Comuna 11,Villa Devoto,Edesur,S/D,NO,,"116"
-58.466662657294,-34.637272318975,RENACER,AV SAN PEDRITO,"558",CARNEVALE MABEL,5252-0909 / / 1552474239,arquitecta.mc@gmail.com,558 SAN PEDRITO AV.,Comuna 7,Flores,Edesur,,,,"117"
-58.5099415591501,-34.609645905648,ASOC.DE BENEFICIENCIA BRITANICA Y NORTEAMERI,AV SEGUROLA,"2941",FONTANELLAZ DIEGO,1550222072- 02241424598,info@interseguridad.com.ar,2941 SEGUROLA AV.,Comuna 11,Villa Devoto,Edesur,,,,"118"
-58.4572096257298,-34.6188507312158,RES. SAN JUAN - ILUVATAR S.R.L.,AV GRAL. DONATO ALVAREZ,"582",MINOTTI CARLOS AGUSTÖN,4523-4889,carlosminotti@yahoo.com.ar,"582 ALVAREZ, DONATO, Tte. Gral. AV.",Comuna 7,Flores,Edesur,S/D,NO,,"119"
-58.4566179522829,-34.6198906508105,RENACER II,AV GRAL. DONATO ALVAREZ,"505",GRIFFO MATIAS,155-339-2274,mgriffo_2000@yahoo.com,"505 ALVAREZ, DONATO, Tte. Gral. AV.",Comuna 6,Caballito,Edesur,"32",NO,,"120"
-58.4570560758414,-34.6189316982491,RES. GER. OSIRIS,AV GRAL. DONATO ALVAREZ,"573",FEBRERO LUCIANO,15-6471-4621 -  39681325,lucianofebrero@gmail.com,"573 ALVAREZ, DONATO, Tte. Gral. AV.",Comuna 6,Caballito,Edesur,,,,"121"
-58.4277179239637,-34.632693897847,VERNET,AV VERNET,"163",LIZASO ESTEBAN,"155-057-4121;4302-3345",hg_argentina@yahoo.com.ar,163 VERNET AV.,Comuna 7,Parque Chacabuco,Edesur,S/D,NO,,"122"
-58.4754529650829,-34.5970787853539,HOGAR SAN MARTIN DEL MINISTERIO DE DESARROLLO SOCIAL,AV WARNES,"2650",PUGENER ANDREA LORENA,,andreapugener@hotmail.com,2650 WARNES AV.,Comuna 15,Paternal,Edenor,,,,"123"
-58.4748464652591,-34.6342263356144,SALIM,AZUL,"169",CASTRO mario gabriel,156-496-6758,castromariog@gmail.com,169 AZUL,Comuna 10,Floresta,Edesur,,,,"124"
-58.4440120606252,-34.6316279218428,GER. BALDOMERO DE CRISTINA TKACZIK,B.F. MORENO,"1223",ROMAGNOLI,"4301-6695;155-248-7652",gustavojromagnoli@speedy.com.ar,"1223 FERNANDEZ MORENO, BALDOMERO",Comuna 7,Parque Chacabuco,Edesur,,,,"125"
-58.4658491351253,-34.6270767643439,LOS PINOS,BACACAY,2550/2,MINOTTI CARLOS AGUSTÖN,4523-4889,carlosminotti@yahoo.com.ar,2550/2 BACACAY,Comuna 7,Flores,Edesur,S/D,NO,,"126"
-58.4675169992332,-34.6275661989622,SERVICIOS PREFERENCIALES AJ S.R.L.,BACACAY,"2672",BADALUCCO MARIANO,,consultoraprevention@gmail.com,2672 BACACAY,Comuna 7,Flores,Edesur,S/D,NO,,"127"
-58.4663726426254,-34.6271378608647,SAN JORGE,BACACAY,2585/87,ROMAGNOLI,"4301-6695;155-248-7652",gustavojromagnoli@speedy.com.ar,2585/87 BACACAY,Comuna 7,Flores,Edesur,,,,"128"
-58.4899990951358,-34.6205360963178,RES. PARA MAYORES B.B.,BAHIA BLANCA,"1460",ADES HECTOR,4781-9460,hector.ades@gmail.com,1460 BAHIA BLANCA,Comuna 10,Floresta,Edesur,,,,"129"
-58.4931312827052,-34.617918637962,BAHIA BLANCA,BAHIA BLANCA,"1757",FAILLA RICARDO  HECTOR,15-57155581,higyseg@fibertel.com.ar,1757 BAHIA BLANCA,Comuna 10,Floresta,Edesur,"145",SI,CUBRE LAS NECESIDADES BASICAS DEL ESTABLECIMIENTO,"130"
-58.5013125376107,-34.6101145006432,RES. CASA PARQUE,BAHIA BLANCA,"2580",COLLADO RODRIGO,155-893-8506,sanglarcollado@gmail.com,2580 BAHIA BLANCA,Comuna 10,Monte Castro,Edesur,,,CAMBIO DE REPRESENTANTE TÉCNICO,"131"
-58.3698013689106,-34.6225762326305,RES. BALCARCE,BALCARCE,"1235",BUSTAMANTE HERNAN,15-4447-9111,h_aconsultores@telecentro.com.ar,1235 BALCARCE,Comuna 1,San Telmo,Edesur,,,,"132"
-58.4647966927975,-34.6422734612429,SAN AGUSTÖN,B. FERNµNDEZ MORENO,"3214",LIZASO ESTEBAN,"155-057-4121;4302-3345",hg_argentina@yahoo.com.ar,"3214 FERNANDEZ MORENO, BALDOMERO",Comuna 7,Flores,Edesur,S/D,NO,,"133"
-58.477011227732,-34.6345715124073,HOGAR BARADERO,BARADERO,"142",ROMAGNOLI,"4301-6695;155-248-7652",gustavojromagnoli@speedy.com.ar,142 BARADERO,Comuna 10,Floresta,Edesur,,,,"134"
-58.5227763883818,-34.6373703678724,HOGAR FAMILIA BARRAGAN,BARRAGAN,"264",BERCOVSKY JORGE EDUARDO,155-827-0062,jorgeberco@yahoo.com.ar,264 BARRAGAN,Comuna 9,Liniers,Edesur,,,,"135"
-58.3925661951693,-34.6080593291558,JORGE ENRIQUE NICOLAS MARCHI,BARTOLOME MITRE,"1838",RIZZO MAXIMILIANO RAéL,4632-6031,inspeccioninmuebles@yahoo.com.ar,"1838 MITRE, BARTOLOME",Comuna 3,Balvanera,Edesur,,,,"136"
-58.4229485778124,-34.6099642214381,SAN JORGE,BARTOLOME MITRE,"4008",FEBRERO LUCIANO,15-6471-4621 -  39681325,lucianofebrero@gmail.com,"4008 MITRE, BARTOLOME",Comuna 5,Almagro,Edesur,,,,"137"
-58.4138068964272,-34.6092871027868,NAZARET,BARTOLOME MITRE,"3345",ADRIANA MU¥IZ,"1561554283",aimuniz@hot.mail.com,"3345 MITRE, BARTOLOME",Comuna 3,Balvanera,Edesur,,,,"138"
-58.4880815437908,-34.5789415346201,GER. LA LAGUNA DORADA,BARZANA,"2138",LIZASO ESTEBAN,"155-057-4121;4302-3345",hg_argentina@yahoo.com.ar,2138 BARZANA,Comuna 12,Villa Urquiza,Edenor,S/D,NO,,"139"
-58.4854027200862,-34.5821980993932,RES. PARA ADULTOS MAYORES LA FUENTE,BARZANA,"1845",KLOPP EDUARDO,4392-4256,eduardo@safetyservices.com.ar,1845 BARZANA,Comuna 12,Villa Urquiza,Edenor,,,,"140"
-58.4842541841118,-34.5783885046899,LA LAGUNA AZUL,BAUNES,"2045",LIZASO ESTEBAN,"155-057-4121;4302-3345",hg_argentina@yahoo.com.ar,2045 BAUNESS,Comuna 12,Villa Urquiza,Edenor,S/D,NO,,"141"
-58.4867838586664,-34.5755759850151,GER. LA CASONA DEL NONO,BAUNESS,"2316",CERVERA ROBERTO HUGO,4545-7331,r_cervera@yahoo.com,2316 BAUNESS,Comuna 12,Villa Urquiza,Edenor,"23",NO,,"142"
-58.4850038865906,-34.5776632969069,INST. GER. RENACER,BAUNESS,2112/2114,SUAREZ MARCOS ANDRES,4502-5990/ 15-5744-9335,ingdavidcohen@arnet.com.ar,2112/2114 BAUNESS,Comuna 12,Villa Urquiza,Edenor,"23",NO,,"143"
-58.477553045659,-34.5861646598765,NUESTRO TIEMPO,BAUNESS,"1265",MINOTTI CARLOS AGUSTÖN,4523-4889,carlosminotti@yahoo.com.ar,1265 BAUNESS,Comuna 15,Parque Chas,Edenor,S/D,NO,,"144"
-58.4748915796435,-34.5841220697006,GER. VICTORIA,BEHRING,"2555",RODRIGUEZ ROSI ROBERTO,4307-7452,rodriguezrosi@hotmail.com,2555 BEHRING,Comuna 15,Parque Chas,Edenor,,,CAMBIO DE REPRESENTANTE TÉCNICO,"145"
-58.5043864363545,-34.6201153030592,CASABLANCA,BENITO JUAREZ,"2120",RODRIGUEZ BUSSI SEBASTIAN MATIAS,"49926675",smrodriguezbussi@hotmail.com,"2120 JUAREZ, BENITO",Comuna 10,Monte Castro,Edesur,"11",NO,,"146"
-58.5111997768417,-34.6182291342335,HOGAR DE ANCIANOS,BERMUDEZ,"2226",SOLA EMILIO,155-378-3931,solaemilio@ciudad.com.ar,2226 BERMUDEZ,Comuna 10,Monte Castro,Edesur,,,,"147"
-58.406848908449,-34.5865020434019,INST. GER. DE REHAB. INTEGRAL I,BILLINGHURST,"2180",MINOTTI CARLOS AGUSTÖN,4523-4889,carlosminotti@yahoo.com.ar,2180 BILLINGHURST,Comuna 2,Recoleta,Edenor,S/D,SI,CUBRE LAS NECESIDADES BASICAS DEL ESTABLECIMIENTO,"148"
-58.4516291545508,-34.5548369542415,PARRA DANIEL,BLANCO ENCALADA,"1630",PEREZ LIDIA HAYDEE,"4636-3812, 1558255024",arqcongestion@yahoo.com,1630 BLANCO ENCALADA,Comuna 13,Belgrano,Edenor,,,,"149"
-58.4833995200765,-34.5737277053839,RES. PARA ABUELOS MILAGROS DE MARIA,BLANCO ENCALADA,"4781",FAVETTO GRACIELA CRISTINA,4753-2859,gracielafavetto@hotmail.com,4781 BLANCO ENCALADA,Comuna 12,Villa Urquiza,Edenor,,,,"150"
-58.4863184386962,-34.5755637039456,TU FAMILIA,BLANCO ENCALADA,"5080",POLA GUSTAVO CESAR,156-1141974--49625306,ingpola@hotmail.com,5080 BLANCO ENCALADA,Comuna 12,Villa Urquiza,Edenor,,,,"151"
-58.4648977023513,-34.6255291655223,RECLISAN SRL,BOGOTA,"2450",ADRIANA MU¥IZ,"1561554283",aimuniz@hot.mail.com,2450 BOGOTA,Comuna 7,Flores,Edesur,,,,"152"
-58.4691441116475,-34.6268552404046,DULCE ATARDECER DE NORMA HAYDEE LAUFER,BOGOTA,"2756",MINOTTI CARLOS AGUSTÖN,4523-4889,carlosminotti@yahoo.com.ar,2756 BOGOTA,Comuna 7,Flores,Edesur,,,,"153"
-58.4334192752615,-34.6130875875057,GER. GALA PETIT HOTEL DE M. EUGENIA PATRICIA MAC ALLISTER,BOGOTA,137/9,DIBITETTO DARIO,154-066-3298,dario1925@ciudad.com.ar,137/9 BOGOTA,Comuna 6,Caballito,Edesur,S/D,NO,,"154"
-58.4362535974996,-34.6141151612855,RES. GER. LA SOLEADA,BOGOTA,"320",GOMEZ DANIEL ALBERTO,"156-553-612; 154-071-6629",gomez_daniel28@yahoo.com.ar,320 BOGOTA,Comuna 6,Caballito,Edesur,"20",NO,,"155"
-58.4312634288605,-34.6123885965078,SAGRADO CORAZON,BOGOTA,"50",CUENCA GUILLERMO JUAN,4797-8032,guillermocuenca@gmail.com,50 BOGOTA,Comuna 6,Caballito,Edesur,,,,"156"
-58.4872879383144,-34.6320617560804,RES. GER. LA VICTORIA,BOGOTA,"4241",MINOTTI CARLOS AGUSTÖN,4523-4889,carlosminotti@yahoo.com.ar,4241 BOGOTA,Comuna 10,Velez Sarsfield,Edesur,S/D,NO,,"157"
-58.4677927645965,-34.6246254400114,GER. BUENOS AIRES,BOLIVIA,"542",ADRIANA MU¥IZ,"1561554283",aimuniz@hot.mail.com,542 ESTADO PLURINACIONAL DE BOLIVIA,Comuna 7,Flores,Edesur,,,,"158"
-58.4667528809283,-34.6269996877078,PRESTACIONES S.A.,BOLIVIA,"324",ADRIANA MU¥IZ,"1561554283",aimuniz@hot.mail.com,324 ESTADO PLURINACIONAL DE BOLIVIA,Comuna 7,Flores,Edesur,,,,"159"
-58.4585713908909,-34.6308754791084,GER. LARREA - PATRICIA ADRIANA GARCIA,BONORINO,245/49,ADRIANA MU¥IZ,"1561554283",aimuniz@hot.mail.com,"245/49 BONORINO, ESTEBAN, Cnel. AV.",Comuna 7,Flores,Edesur,,,,"160"
-58.405050993543,-34.5988419605541,CASA AZUL S.R.L.,BOULOGNE SUR MER,"954",PADILLA JAVIER SANTIAGO,4961-9056,gestion@capacitarweb.com.ar,954 BOULOGNE SUR MER,Comuna 3,Balvanera,Edesur,,,,"161"
-58.4575855070313,-34.6254866867605,JORGE LUIS PAZOS MIRALLES,BOYACA,"114",PICK PATRICIA,"154-400-0847;4702-6493",patriciapick@fibertel.com.ar,114 BOYACA,Comuna 7,Flores,Edesur,,,,"162"
-58.3845108389511,-34.6282585633164,GER. AVRIL,BRASIL,"1314",PATRICIA PICK,"1544000847",patrciapick@fybertel.com.ar,1314 BRASIL,Comuna 1,Constitución,Edesur,,,,"163"
-58.4169589952558,-34.6045741306287,MARIO BRAVO,BRAVO MARIO,"456",LIZASO ESTEBAN,"155-057-4121;4302-3345",hg_argentina@yahoo.com.ar,"456 BRAVO, MARIO",Comuna 5,Almagro,Edesur,S/D,NO,,"164"
-58.4840220074605,-34.5805722638594,ABUELA GRANDE,BUCARELLI,"1902",CERVERA ROBERTO HUGO,4545-7331,r_cervera@yahoo.com,1902 BUCARELLI,Comuna 12,Villa Urquiza,Edenor,"30",NO,,"165"
-58.4921238779374,-34.5715911438452,LA CASA DEL SOL,BUCARELLI,"2932",LIZASO ESTEBAN,"155-057-4121;4302-3345",hg_argentina@yahoo.com.ar,2932 BUCARELLI,Comuna 12,Villa Urquiza,Edenor,S/D,NO,,"166"
-58.4953235217654,-34.5674431238651,LAGUNA DORADA S.R.L.,BUCARELLI,"3343",SZWEDAK JORGE LUIS,"1544262501",jszwedak@hotmail.com,3343 BUCARELLI,Comuna 12,Villa Urquiza,Edenor,"27",NO,,"167"
-58.4875584906395,-34.5832078926336,RES. GER. NTRA SE¥ORA DE LOURDES,BURELA,"1862",LIZASO ESTEBAN,"155-057-4121;4302-3345",hg_argentina@yahoo.com.ar,1862 BURELA,Comuna 12,Villa Urquiza,Edenor,S/D,NO,,"168"
-58.4894894456621,-34.5805647479951,LAS GLICINAS,BURELA,"2095",LIZASO ESTEBAN,"155-057-4121;4302-3345",hg_argentina@yahoo.com.ar,2095 BURELA,Comuna 12,Villa Urquiza,Edenor,S/D,NO,,"169"
-58.514733388822,-34.6436006132359,ESTABLECIMIENTO GER.,CAAGUAZU,"6144",LIZASO ESTEBAN,"155-057-4121;4302-3345",hg_argentina@yahoo.com.ar,6144 CAAGUAZU,Comuna 9,Liniers,Edesur,S/D,NO,,"170"
-58.5192065587461,-34.6474712842154,GER. SERENA,CAAGUAZU,"6656",PELAEZ ALBERTO MANUEL,"49227065",consultora@apelaez.com.ar,6656 CAAGUAZU,Comuna 9,Liniers,Edesur,,,,"171"
-58.5188595320702,-34.6459949297405,SAN NICOLAS,CAFAYATE,"643",HERMIDA DIEGO RODOLFO,"1565206678",diego_hermida72@yahoo.com.ar,643 CAFAYATE,Comuna 9,Liniers,Edesur,"11",NO,,"172"
-58.5081737835152,-34.6537769426105,INST. GER. CAFAYATE SA,CAFAYATE,"1542",GARCIA NORBERTO,"1550026993",ngarcia@gmasociados.com.ar,1542 CAFAYATE,Comuna 9,Mataderos,Edesur,,,,"173"
-58.4932273305656,-34.6403556926027,RES. GER. LAS ROSAS,CAJARAVILLA,"4721",LIZASO ESTEBAN,"155-057-4121;4302-3345",hg_argentina@yahoo.com.ar,4721 CAJARAVILLA,Comuna 10,Villa Luro,Edesur,S/D,NO,,"174"
-58.4579010554541,-34.6214269060529,GER.S GEBEDOS SRL GUSTAVO  BOHN,CALCENA,"429",ABUIN RAéL HECTOR,"1559626013",raul_abuin@yahoo.com.ar,429 CALCENA,Comuna 7,Flores,Edesur,"30",NO,,"175"
-58.3826012012389,-34.6491301127915,LE SA,CALIFORNIA,"2580",STEIZEL ARIEL,"1549729889",ariel@gruposh.com.ar,2580 CALIFORNIA,Comuna 4,Barracas,Edesur,,,,"176"
-58.4435132424545,-34.597464875417,CAMARGO,CAMARGO,"880",HERMIDA DIEGO RODOLFO,"1565206678",diego_hermida72@yahoo.com.ar,880 CAMARGO,Comuna 15,Villa Crespo,Edesur,,,EL PREFECIONAL VA A ENVIAR LA INFORMACIÓN,"177"
-58.4762165789739,-34.6100387295159,BAFERAL S.R.L.,CAMARONES,"2551",TILL PABLO ELIAS,154-421-6549,pablotill@yahoo.com,2551 CAMARONES,Comuna 11,Villa Gral. Mitre,Edesur,,,,"178"
-58.5128960344246,-34.5834602394871,GER. JAZMIN,CAMPANA,5459 CABA,BERCOVSKY JORGE EDUARDO,155-827-0062,jorgeberco@yahoo.com.ar,5459 CABA CAMPANA,Comuna 12,Villa Pueyrredón,Edenor,,,,"179"
-58.4752227630873,-34.6308597348627,RES. GER. JULIA,CAMPANA,"96",LIZASO ESTEBAN,"155-057-4121;4302-3345",hg_argentina@yahoo.com.ar,96 CAMPANA,Comuna 10,Floresta,Edesur,S/D,NO,,"180"
-58.5079344056395,-34.6201509908672,MIRTA GRACIELA DE CONDE,CANADA,4957/61,DACHEVSKY EDGARDO,156-397-6827,egdy_7@yahoo.com.ar,4957/61 CANADA,Comuna 10,Monte Castro,Edesur,,,,"181"
-58.5110750164093,-34.656217515537,RES. GER. ELIT,CA¥ADA DE GOMEZ,"1721",LIZASO ESTEBAN,"155-057-4121;4302-3345",hg_argentina@yahoo.com.ar,1721 CA¥ADA DE GOMEZ,Comuna 9,Mataderos,Edesur,S/D,SI,,"182"
-58.4899289885648,-34.5703132115774,CAMPOS MIGUEL ANGEL,CAPDEVILA,"2940",SOUTO EDUARDO,154-141-4077,eduardosouto@speedy.com.ar,2940 CAPDEVILA,Comuna 12,Villa Urquiza,Edenor,,,CAMBIO DE REPRESENTANTE TÉCNICO,"183"
-58.4605606029228,-34.5708097774064,GER. MARIA REYNA II,CAPITAN GRAL RAMON FREIRE,"1673",ADRIANA MU¥IZ,"1561554283",aimuniz@hot.mail.com,"1673 FREIRE, RAMON, CAP. GRAL.",Comuna 13,Belgrano,Edenor,,,,"184"
-58.4824699460688,-34.5449196340188,AZUL AZUL,CAPITAN GRAL RAMON FREIRE,"4662",ADRIANA MU¥IZ,"1561554283",aimuniz@hot.mail.com,"4662 FREIRE, RAMON, CAP. GRAL.",Comuna 12,Saavedra,Edenor,,,,"185"
-58.4982917096008,-34.578799528174,ESTABLECIMIENTO GER. CARACAS,CARACAS,"5089",LIZASO ESTEBAN,"155-057-4121;4302-3345",hg_argentina@yahoo.com.ar,5089 CARACAS,Comuna 12,Villa Pueyrredón,Edenor,S/D,NO,,"186"
-58.4688805853065,-34.614106472182,LOYOLA,CARACAS,"1448",GORRIZ JUAN CRUZ,,juancgorriz@gmail.com,1448 CARACAS,Comuna 11,Villa Gral. Mitre,Edesur,,,,"187"
-58.4069419631492,-34.6219239624424,GER. SAN FRANCISCO DE ASIS,CARLOS CALVO,2965/67,MINOTTI CARLOS AGUSTÖN,4523-4889,carlosminotti@yahoo.com.ar,"2965/67 CALVO, CARLOS",Comuna 3,San Cristobal,Edesur,S/D,NO,,"188"
-58.3968178496819,-34.6207393241991,GER. SAN JOSE,CARLOS CALVO,"2180",MILANESI CARLOS RODOLFO,,estudioplus@estudioplus.com.ar,"2180 CALVO, CARLOS",Comuna 3,San Cristobal,Edesur,,,,"189"
-58.3925396018409,-34.6202384284883,RES. GER. SAN MARTIN,CARLOS CALVO,"1855",LIZASO ESTEBAN,"155-057-4121;4302-3345",hg_argentina@yahoo.com.ar,"1855 CALVO, CARLOS",Comuna 3,San Cristobal,Edesur,S/D,NO,,"190"
-58.4971017276793,-34.6277106704139,LA FUENTE,CARRASCO,"933",DURANDEU LURDES,"4372-9514;  4372-9515",lourdes@giasoluciones.com,933 CARRASCO AV.,Comuna 10,Velez Sarsfield,Edesur,"62",SI,TODO EL ESTABLECIMIENTO INCLUIDO EL ASCENSOR,"191"
-58.4205528546939,-34.6216763073913,GER. L HIRONDELLE,CASTRO,"825",GRIFFO MATIAS NICOLAS,155-339-2274,mgriffo_2000@yahoo.com,825 CASTRO,Comuna 5,Boedo,Edesur,"23",NO,,"192"
-58.4201010958574,-34.6269860633155,CENTRO DEL SOL,CASTRO,"1169",MINOTTI CARLOS AGUSTÖN,4523-4889,carlosminotti@yahoo.com.ar,1169 CASTRO,Comuna 5,Boedo,Edesur,S/D,NO,,"193"
-58.4197038058623,-34.6287538730002,GER. VIDA PLENA,CASTRO,1333/5,GRIFFO MATIAS,155-339-2274,mgriffo_2000@yahoo.com,1333/5 CASTRO,Comuna 5,Boedo,Edesur,,,CAMBIO DE REPRESENTANTE TÉCNICO,"194"
-58.4177864942095,-34.6333262800647,GER. SAGRADA FAMILIA,CASTRO BARROS,"1728",ARIAS ANDRES LEONARDO,,hg_argentina@yahoo.com.ar,1728 CASTRO BARROS,Comuna 5,Boedo,Edesur,S/D,NO,,"195"
-58.4207191533159,-34.6130314802667,LACAT SRL EL SOLAR DE DON BOSCO,CASTRO BARROS,"93",DIAZ CORIA BERNABE GUIDO,"1560934814",info@safetyargentina.com,93 CASTRO BARROS,Comuna 5,Almagro,Edesur,"36",NO,,"196"
-58.4055652184219,-34.6168617021947,GER. DE CATAMARCA S.R.L,CATAMARCA,"558",ADRIANA MU¥IZ,156-155-4283,aimuniz@hotmail.com,558 CATAMARCA,Comuna 3,Balvanera,Edesur,,,,"197"
-58.4953676921803,-34.6357964087696,TUYU II,CERVANTES,"128",MINOTTI CARLOS AGUSTÖN,4523-4889,carlosminotti@yahoo.com.ar,128 CERVANTES,Comuna 10,Villa Luro,Edesur,S/D,NO,,"198"
-58.4982498492962,-34.6254247142578,GER. MODELO CERVANTES S.A.,CERVANTES,"4651",MINOTTI CARLOS AGUSTÖN,4523-4889,carlosminotti@yahoo.com.ar,4651 CERVANTES,Comuna 10,Velez Sarsfield,Edesur,S/D,NO,,"199"
-58.452915901106,-34.575607998207,BEIT AVOT SRL,CESPEDES,"3135",MINOTTI CARLOS AGUSTÖN,4523-4889,carlosminotti@yahoo.com.ar,3135 CESPEDES,Comuna 13,Colegiales,Edenor,S/D,NO,,"200"
-58.4520220292408,-34.5743546433658,ALU,CESPEDES,"3016",ESPINOSA JOSE CARLOS,156-050-7553,ing.josecespinosa@gmail.com,3016 CESPEDES,Comuna 13,Colegiales,Edenor,,,,"201"
-58.4228522482131,-34.5839495347507,INST. SERRANO DE NUCERA OLGA Y F. RODOLFO,CHARCAS,"4278",CERIMEDO CARLOS ALFREDO,15-62749504,ingcerimedoutnfrba@yahoo.com.ar,4278 CHARCAS,Comuna 14,Palermo,Edenor,,,,"202"
-58.4703678701758,-34.5804409236001,DESPERTARES,CHARLONE,"2063",BERCOVSKY JORGE EDUARDO,155-827-0062,jorgeberco@yahoo.com.ar,2063 CHARLONE,Comuna 15,Villa Ortuzar,Edenor,,,,"203"
-58.4421046780904,-34.5740595995207,GER. VITASOL DE BOZUGI S.RL.,CIUDAD DE LA PAZ,"368",PFEFFERMAN RUBEN JULIO,,rup@telecentro.com.ar,368 CIUDAD DE LA PAZ,Comuna 14,Palermo,Edenor,,,,"204"
-58.448699036482,-34.5699139278756,BANG BIG SA,CIUDAD DE LA PAZ,1051/57,MINOTTI CARLOS AGUSTÖN,4523-4889,carlosminotti@yahoo.com.ar,1051/57 CIUDAD DE LA PAZ,Comuna 13,Colegiales,Edenor,S/D,NO,,"205"
-58.4421046780904,-34.5740595995207,MOHOO S.R.L.,CIUDAD DE LA PAZ,368/376,PFEFFERMAN RUBEN JULIO,,rup@telecentro.com.ar,368/376 CIUDAD DE LA PAZ,Comuna 14,Palermo,Edenor,,,,"206"
-58.4479428719067,-34.5704542569261,RES. GER. LA MIRAGE,CIUDAD DE LA PAZ,"950",LIZASO ESTEBAN,"155-057-4121;4302-3345",hg_argentina@yahoo.com.ar,950 CIUDAD DE LA PAZ,Comuna 13,Colegiales,Edenor,S/D,NO,,"207"
-58.3891038072877,-34.6238841346581,RES. DE ANCIANOS COCHABAMBA,COCHABAMBA,"1649",LIZASO ESTEBAN,"155-057-4121;4302-3345",hg_argentina@yahoo.com.ar,1649 COCHABAMBA,Comuna 1,Constitución,Edesur,S/D,NO,,"208"
-58.4116024234783,-34.6264157771499,CARPE DIEM,COCHABAMBA,3279/85,RASTELLI NESTOR,154-4789-660,rastellin@yahoo.com.ar,3279/85 COCHABAMBA,Comuna 3,San Cristobal,Edesur,,,,"209"
-58.389004887285,-34.6238747408204,COCHABAMBA,COCHABAMBA,"1641",LIZASO ESTEBAN,"155-057-4121;4302-3345",hg_argentina@yahoo.com.ar,1641 COCHABAMBA,Comuna 1,Constitución,Edesur,S/D,NO,,"210"
-58.4188249613453,-34.6139284845703,GER. NTRA SE¥ORA DE LOURDES,COLOMBRES,"161",MINOTTI CARLOS AGUSTÖN,15-4409-0341,carlosminotti@yahoo.com.ar,161 COLOMBRES,Comuna 5,Almagro,Edesur,S/D,NO,,"211"
-58.4189083179074,-34.6136821655027,HOGAR DE ANCIANOS PRIAMO,COLOMBRES,"147",DIAZ CORIA BERNABE GUIDO,"1560934814",info@safetyargentina.com,147 COLOMBRES,Comuna 5,Almagro,Edesur,"16",NO,,"212"
-58.4430313138898,-34.6128117034656,COLPAYO,COLPAYO,"657",ADRIANA MU¥IZ,"1561554283",aimuniz@hot.mail.com,657 COLPAYO,Comuna 6,Caballito,Edesur,,,,"213"
-58.4422683793291,-34.6147117593792,PABLO ROSSETTI,COLPAYO,"483",GOMEZ DANIEL ALBERTO,"156-553-612; 154-071-6629",gomez_daniel28@yahoo.com.ar,483 COLPAYO,Comuna 6,Caballito,Edesur,"21",NO,,"214"
-58.5011234359039,-34.5836342558796,HOGAR GER. SAN CAYETANO,CONDARCO,"4848",GOMEZ NESTOR OMAR,155-429-2235,ngomez@agea.com.ar,4848 CONDARCO,Comuna 12,Villa Pueyrredón,Edenor,,,,"215"
-58.4877461490588,-34.5999977842604,HOSTAL C.A.I.P. VILLA DEL PARQUE S.R.L.,CONDARCO,"3038",KOFFMAN OSVALDO EUGENIO,,okoffman@garben.com.ar,3038 CONDARCO,Comuna 11,Vlla Del Parque,Edesur,,,CAMBIO DE REPRESENTANTE TÉCNICO,"216"
-58.3951497743742,-34.6255742795246,RES. GER. SANTA BARBARA,CONSTITUCION,"2150",VACA VILLARROEL MAURO,15-5041-0924,vacavi@uolsinectis.com.ar,2150 CONSTITUCION,Comuna 3,San Cristobal,Edesur,,,,"217"
-58.4630376075063,-34.6141094654045,OASIS,CNEL APOLINARIO FIGUEROA,"1947",CARNEVALE MABEL,5252-0909 / / 1552474239,arquitecta.mc@gmail.com,"1947 FIGUEROA, D. APOLINARIO, CORONEL",Comuna 11,Villa Gral. Mitre,Edesur,,,,"218"
-58.4584178997767,-34.6312004451899,JORGE SANCHEZ RAMUNDO,CNEL ESTEBAN BONORINO,"275",CARNEVALE MABEL,5252-0909 / / 1552474239,arquitecta.mc@gmail.com,"275 BONORINO, ESTEBAN, Cnel. AV.",Comuna 7,Flores,Edesur,,,,"219"
-58.4337999272272,-34.590651744693,ASOC. CIVIL ARMENIA DE BENEFICENCIA,CNEL NICETO VEGA,"5036",CERIMEDO CARLOS ALFREDO,15-62749504,ingcerimedoutnfrba@yahoo.com.ar,"5036 VEGA, NICETO, Cnel.",Comuna 14,Palermo,Edenor,,,,"220"
-58.4719589300979,-34.6329837934497,SAN JOSE Y MARIA,CNEL RAMON L. FALCON,"3120",ADRIANA MU¥IZ,"1561554283",aimuniz@hot.mail.com,"3120 FALCON, RAMON L.,CNEL.",Comuna 7,Flores,Edesur,,,,"221"
-58.4471513113828,-34.6239156473179,SANTA JULIA,CNEL RAMON L. FALCON,"1315",LIZASO ESTEBAN,"155-057-4121;4302-3345",hg_argentina@yahoo.com.ar,"1315 FALCON, RAMON L.,CNEL.",Comuna 6,Caballito,Edesur,S/D,NO,,"222"
-58.4832938982023,-34.6356271733983,MARIA DEL CARMEN GONZALEZ,CNEL RAMON L. FALCON,4032/36,LEIVA DAMIµN MARCELO,15-5039-3308,damianmarceloleiva@yahoo.com.ar,"4032/36 FALCON, RAMON L.,CNEL.",Comuna 10,Velez Sarsfield,Edesur,,,,"223"
-58.4684738978059,-34.6319425540588,GER. HEGLOS SRL VIDA PLENA,CNEL RAMON L. FALCON,"2859",MINOTTI CARLOS AGUSTÖN,4523-4889,carlosminotti@yahoo.com.ar,"2859 FALCON, RAMON L.,CNEL.",Comuna 7,Flores,Edesur,S/D,NO,,"224"
-58.4467289196569,-34.5738036618531,MEDICAL VIEW SRL,CRAMER,"668",MINOTTI CARLOS AGUSTÖN,4523-4889,carlosminotti@yahoo.com.ar,668 CRAMER,Comuna 13,Colegiales,Edenor,S/D,SI,ESTABLECIMIENTO COMPLETO,"225"
-58.4573185931886,-34.5699462503111,HOGAR SCHONBRUNN S.R.L.,CRAMER,"1674",RASTELLI NESTOR,154-4789-660,rastellin@yahoo.com.ar,1674 CRAMER,Comuna 13,Colegiales,Edenor,,,,"226"
-58.4698746470126,-34.5550081261222,MFM CRAMER S.R.L.,CRAMER,"3216",LEDESMA GERARDO ARIEL,"1563975514",gledesma4@gmail.com,3216 CRAMER,Comuna 13,Nuñez,Edenor,"43",SI,TODO EL ESTABLECIMIENTO INCLUIDO EL ASCENSOR,"227"
-58.4704088817491,-34.5501391614044,GER. SAAVEDRA S.A.,CRISOLOGO LARRALDE,"2625",MINOTTI CARLOS AGUSTÖN,4523-4889,carlosminotti@yahoo.com.ar,"2625 LARRALDE, CRISOLOGO",Comuna 12,Saavedra,Edenor,S/D,SI,CUBRE LAS NECESIDADES BASICAS DEL ESTABLECIMIENTO,"228"
-58.4533428830736,-34.6055245355745,GER. AMANECER,CUCHA CUCHA,"1483",LIZASO ESTEBAN,"155-057-4121;4302-3345",hg_argentina@yahoo.com.ar,1483 CUCHA CUCHA,Comuna 15,Villa Crespo,Edesur,S/D,NO,,"229"
-58.4494171132477,-34.610458908702,RUBEN RAMIRO PASCUAL MERAYO,CUCHA CUCHA,1026/28,MINOTTI CARLOS AGUSTÖN,4523-4889,carlosminotti@yahoo.com.ar,1026/28 CUCHA CUCHA,Comuna 6,Caballito,Edesur,,,,"230"
-58.4808070555011,-34.619066926025,BARISOL SRL,CUENCA,"1242",ADRIANA MU¥IZ,"1561554283",aimuniz@hot.mail.com,1242 CUENCA,Comuna 11,Villa Santa Rita,Edesur,,,,"231"
-58.510964952945,-34.5834882187595,EL RINCàN DE LOS ABUELOS,CUENCA,"5366",AIROLI ALEJANDRO,"155-410-5368; 155-014-2404",segecocity@aol.com,5366 CUENCA,Comuna 12,Villa Pueyrredón,Edenor,,,,"232"
-58.491968772573,-34.5751779033786,GER. MARIA CONTE MUR,CULLEN,5478/80,LIZASO ESTEBAN,"155-057-4121;4302-3345",hg_argentina@yahoo.com.ar,5478/80 CULLEN,Comuna 12,Villa Urquiza,Edenor,S/D,NO,,"233"
-58.4966012057519,-34.5776065845533,RES. GER. HOSTAL CULLEN,CULLEN,5849/51,MINOTTI CARLOS AGUSTÖN,4523-4889,carlosminotti@yahoo.com.ar,5849/51 CULLEN,Comuna 12,Villa Urquiza,Edenor,S/D,NO,,"234"
-58.4524357430917,-34.6289440610373,GER. CURAPALIGE SRL,CURAPALIGUE,339/347,ADRIANA MU¥IZ,"1561554283",aimuniz@hot.mail.com,339/347 CURAPALIGUE,Comuna 7,Flores,Edesur,,,,"235"
-58.4905458544449,-34.6439205744477,SANTA ANA,DAMASO LARRA¥AGA,"640",LEIVA DAMIµN MARCELO,15-5039-3308,damianmarceloleiva@yahoo.com.ar,"640 LARRA¥AGA, DAMASO",Comuna 9,Parque Avellaneda,Edesur,,,,"236"
-58.4430392221968,-34.5923306551587,DR ALBERT SCHWEITZER,DARWIN,"860",PICK PATRICIA,"154-400-0847;4702-6493",patriciapick@fibertel.com.ar,860 DARWIN,Comuna 15,Villa Crespo,Edesur - Edenor,,,,"237"
-58.4052946408754,-34.6296141547771,RES. GER.,DEAN FUNES,"1632",MINOTTI CARLOS AGUSTÖN,4523-4889,carlosminotti@yahoo.com.ar,1632 DEAN FUNES,Comuna 4,Parque Patricios,Edesur,,,,"238"
-58.4061501714101,-34.6211714399725,GRANNY S HOUSE SRL,DEAN FUNES,"950",BARRAGAN JUAN CARLOS,,info@hsl-asociados.com.ar,950 DEAN FUNES,Comuna 3,San Cristobal,Edesur,,,,"239"
-58.3727567547977,-34.6278890095792,RES. GER. LA PLAZA,DOCTOR PROFESOR ENRIQUE FINOCHIETTO,"529",ADRIANA MU¥IZ,"1561554283",aimuniz@hot.mail.com,529 FINOCHIETTO ENRIQUE DR.,Comuna 4,Barracas,Edesur,,,,"240"
-58.4146209435695,-34.6117472872606,EL JARDIN DE DON BOSCO,DON BOSCO,"3448",MARASCO JOSE ENRIQUE,4629-2905,jemarasco@hotmail.com,3448 DON BOSCO,Comuna 5,Almagro,Edesur,"29",NO,,"241"
-58.471428690643,-34.577190892627,GER. OTRO ESTILO,DONADO,"1660",MINOTTI CARLOS AGUSTÖN,4523-4889,carlosminotti@yahoo.com.ar,1660 DONADO,Comuna 15,Villa Ortuzar,Edenor,S/D,NO,,"242"
-58.4357225308162,-34.6143296764934,ESTABLEC GER. LA LUISA SA,DR. ELEODORO LOBOS,"270",CARBALLO WALTER HUGO,"156-507-1188; 4572-7468",parthenosonsultores@gmail.com,"270 LOBOS, ELEODORO, Dr.",Comuna 6,Caballito,Edesur,,,,"243"
-58.4346159172112,-34.6150072328261,GER. NEUQUEN,DR. GREGORIO ARAOZ ALFARO,"258",ADRIANA MU¥IZ,"1561554283",aimuniz@hot.mail.com,"258 ARAOZ ALFARO, GREGORIO, DR",Comuna 6,Caballito,Edesur,,,,"244"
-58.4571981360983,-34.6202524994928,PARA MAYORES PARQUE ROSAL,DR. JUAN F. ARANGUREN,"1832",BRAVO GUSTAVO RAUL,4542-6811/15-3353-4880,"info@technologyprevingea.com.ar; previngea@gmail.com","1832 ARANGUREN, JUAN F., Dr.",Comuna 7,Flores,Edesur,,,,"245"
-58.4427522285939,-34.6146954404253,MI ANGEL,DR. JUAN F. ARANGUREN,"728",,,,"728 ARANGUREN, JUAN F., Dr.",Comuna 6,Caballito,Edesur,,,,"246"
-58.4576988604305,-34.6060980449471,KARMA LUZ SRL,DR. LUIS BELAUSTEGUI,1223/13/15,MU¥OZ JUAN RAMON,155-1334-849,juanmunoz50@hotmail.com,"1223/13/15 BELAUSTEGUI, LUIS, Dr.",Comuna 6,Caballito,Edesur,,,CAMBIO DE REPRESENTANTE TÉCNICO,"247"
-58.4799726047666,-34.5677176548401,SAN ANTONIO,DR. P. IGNACIO RIVERA,"4318",CERVERA ROBERTO HUGO,4545-7331,r_cervera@yahoo.com,"4318 RIVERA, PEDRO I., Dr.",Comuna 12,Villa Urquiza,Edenor,"44",NO,,"248"
-58.4694218898248,-34.561527780945,QUO VADIS DE NORBERTO CARUSO,DR. P. IGNACIO RIVERA,"3238",ROMERO NESTOR DANIEL,"1559619164",nestoromero5@yahoo.com.ar,"3238 RIVERA, PEDRO I., Dr.",Comuna 12,Coghlan,Edenor,,,,"249"
-58.4976508905814,-34.577096585093,LOS DIAMANTES II,DR. P. IGNACIO RIVERA,"5873",ROCCHI JOSE  R.,"155-713-7367;4301-0348",jrocchi@sion.com,"5873 RIVERA, PEDRO I., Dr.",Comuna 12,Villa Urquiza,Edenor,,,CAMBIO DE REPRESENTANTE TÉCNICO,"250"
-58.4661969960814,-34.5597247561313,GER. SAN JORGE DE SERGIO MILLER,DR. P. IGNACIO RIVERA,"2940",ROMAGNOLI,"4301-6695;155-248-7652",gustavojromagnoli@speedy.com.ar,"2940 RIVERA, PEDRO I., Dr.",Comuna 13,Belgrano,Edenor,,,,"251"
-58.493722206461,-34.5749494866748,RES. GER. LA FUENTE AZUL,DR. P. IGNACIO RIVERA,"5577",LIZASO ESTEBAN,"155-057-4121;4302-3345",hg_argentina@yahoo.com.ar,"5577 RIVERA, PEDRO I., Dr.",Comuna 12,Villa Urquiza,Edenor,S/D,NO,,"252"
-58.4939574458743,-34.5751865662322,STA MARIA DE MARIA ELENA AGUADERO,DR. P. IGNACIO RIVERA,"5602",LIZASO ESTEBAN,"155-057-4121;4302-3345",hg_argentina@yahoo.com.ar,"5602 RIVERA, PEDRO I., Dr.",Comuna 12,Villa Urquiza,Edenor,S/D,NO,,"253"
-58.4863814756857,-34.570921471195,GER. OSCAR DECAL,DR. P. IGNACIO RIVERA,4921/27,,,,"4921/27 RIVERA, PEDRO I., Dr.",Comuna 12,Villa Urquiza,Edenor,,,,"254"
-58.4769475545312,-34.5657731199951,INST. COGHLAN S.R.L,DR. P. IGNACIO RIVERA,"3975",PFEFFERMAN RUBEN JULIO,,rup@telecentro.com.ar,"3975 RIVERA, PEDRO I., Dr.",Comuna 12,Coghlan,Edenor,,,,"255"
-58.4800353137385,-34.6617424346801,SONIA  ESTER ROA,ECHEANDIA,"4987",CARNEVALE MABEL,5252-0909 / / 1552474239,arquitecta.mc@gmail.com,4987 ECHEANDIA,Comuna 8,Villa Lugano,Edesur,,,,"256"
-58.4660697414915,-34.5690522579476,GER. SAN MARCOS,ECHEVERRIA,"3434",LIZASO ESTEBAN,"155-057-4121;4302-3345",hg_argentina@yahoo.com.ar,3434 ECHEVERRIA,Comuna 13,Belgrano,Edenor,S/D,NO,,"257"
-58.4308904671247,-34.6145290549851,GER. CASA GRANDE S.R.L.,EDUARDO ACEVEDO,"92",PADILLA JAVIER SANTIAGO,4961-9056,gestion@capacitarweb.com.ar,"92 ACEVEDO, EDUARDO",Comuna 6,Caballito,Edesur,,,,"258"
-58.4349699988469,-34.6391064709197,GER. DE OMAR EZEQUIEL BONINO,EL ARTESANO,"1251",FEBRERO LUCIANO,15-6471-4621 -  39681325,lucianofebrero@gmail.com,1251 EL ARTESANO,Comuna 7,Parque Chacabuco,Edesur,,,,"259"
-58.5125359253405,-34.5907727497276,GER. SAN MARINO,EMILIO LAMARCA,4841/57,ADRIANA MU¥IZ,"1561554283",aimuniz@hot.mail.com,"4841/57 LAMARCA, EMILIO",Comuna 11,Villa Devoto,Edenor,,,,"260"
-58.4434667051403,-34.6243214298103,NIVEL DE GERIHOGARES,EMILIO MITRE,"223",LIZASO ESTEBAN,"155-057-4121;4302-3345",hg_argentina@yahoo.com.ar,"223 MITRE, EMILIO",Comuna 6,Caballito,Edesur,S/D,NO,,"261"
-58.4602578935004,-34.6024926928501,MASOGO,ESPINOSA,2047/51,ADRIANA MU¥IZ,"1561554283",aimuniz@hot.mail.com,2047/51 ESPINOSA,Comuna 15,Paternal,Edesur - Edenor,,,,"262"
-58.4629610145624,-34.6020143435669,GER. GERUSIA,ESPINOSA,"2230",COEN VERONICA,"155-119-9964;4554-3855",verocoen@yahoo.com.ar,2230 ESPINOSA,Comuna 15,Paternal,Edesur,,,,"263"
-58.4672154831448,-34.6010133723597,RES. GER. LA AMISTAD,ESPINOSA,"2515",LIZASO ESTEBAN,"155-057-4121;4302-3345",hg_argentina@yahoo.com.ar,2515 ESPINOSA,Comuna 15,Paternal,Edesur,S/D,NO,,"264"
-58.4556451006682,-34.6062944602911,LA TRINIDAD,ESPINOSA,"1520",GOMEZ DANIEL ALBERTO,"156-553-612; 154-071-6629",gomez_daniel28@yahoo.com.ar,1520 ESPINOSA,Comuna 6,Caballito,Edesur,"26",NO,,"265"
-58.4190698714275,-34.6517447528368,RES. GER. RINCON DEL SOL DE ELBA DIANA CASCA,ESQUIU,1120/22,LIZASO ESTEBAN,"155-057-4121;4302-3345",hg_argentina@yahoo.com.ar,1120/22 ESQUIU,Comuna 4,Nueva Pompeya,Edesur,S/D,NO,,"266"
-58.3863629107706,-34.6186721051649,ESTABLECIMIENTO RES. PARA PERSONAS MAYORES,ESTADOS UNIDOS,"1431",PICK PATRICIA,"154-400-0847;4702-6493",patriciapick@fibertel.com.ar,1431 ESTADOS UNIDOS,Comuna 1,Constitución,Edesur,,,,"267"
-58.3900302095445,-34.6189172105061,CLINICA GER. ESPIRITU SANTO S.A.,ESTADOS UNIDOS,"1683",MINOTTI CARLOS AGUSTÖN,4383-6368,carlosminotti@yahoo.com.ar,1683 ESTADOS UNIDOS,Comuna 1,Constitución,Edesur,S/D,NO,,"268"
-58.4863522274853,-34.5515933128175,MONICA BEATRIZ GURRIERI,ESTOMBA,"4225",MINOTTI CARLOS AGUSTÖN,4523-4889,carlosminotti@yahoo.com.ar,4225 ESTOMBA,Comuna 12,Saavedra,Edenor,S/D,NO,,"269"
-58.4737734070672,-34.5677201804684,SAN BENITO,ESTOMBA,"2421",MINOTTI CARLOS AGUSTÖN,4523-4889,carlosminotti@yahoo.com.ar,2421 ESTOMBA,Comuna 12,Villa Urquiza,Edenor,S/D,NO,,"270"
-58.4291790359313,-34.6308536792826,INST. GER. TIEMPO,ESTRADA,"231",CADEL ANDREA VIVIANA,4780-5554,acadel@hiseca.com.ar,231 ESTRADA,Comuna 7,Parque Chacabuco,Edesur,,,,"271"
-58.470904135288,-34.6225801456271,RES. PARA MAYORES SM CIMOLAI EVA,FELIPE VALLESE,"2748",CERVERA ROBERTO HUGO,4545-7331,r_cervera@yahoo.com,"2748 VALLESE, FELIPE",Comuna 7,Flores,Edesur,,BAJA,CAMBIO DE REPRESENTANTE TÉCNICO,"272"
-58.4671516246798,-34.6213116486097,DAMONTE EDGARDO - RES. SAN ALBERTO S.A.,FELIPE VALLESE,"2457",SOUTO EDUARDO,154-141-4077,eduardosouto@speedy.com.ar,"2457 VALLESE, FELIPE",Comuna 7,Flores,Edesur,,,CAMBIO DE REPRESENTANTE TÉCNICO,"273"
-58.4654063155513,-34.6207238216546,SERVIPREF S.R.L.,FELIPE VALLESE,"2337",BADALUCCO MARIANO,,consultoraprevention@gmail.com,"2337 VALLESE, FELIPE",Comuna 7,Flores,Edesur,S/D,NO,,"274"
-58.445033915765,-34.613021159985,PATRICIA MELO,FELIPE VALLESE,820/22,MINOTTI CARLOS AGUSTÖN,4523-4889,carlosminotti@yahoo.com.ar,"820/22 VALLESE, FELIPE",Comuna 6,Caballito,Edesur,S/D,NO,,"275"
-58.4611315788593,-34.6190860070476,LA CASA DE MATIAS,FELIPE VALLESE,1960/62,CERVERA ROBERTO HUGO,4545-7331,r_cervera@yahoo.com,"1960/62 VALLESE, FELIPE",Comuna 7,Flores,Edesur,,BAJA,CAMBIO DE REPRESENTANTE TÉCNICO,"276"
-58.5130154292697,-34.604103456956,GER.S PRIVADOS DON BOSCOS.R.L,FERNANDEZ DE ENCISO,"3715",DIAZ CORIA BERNABE GUIDO,"1560934814",info@safetyargentina.com,3715 FERNANDEZ DE ENCISO,Comuna 11,Villa Devoto,Edesur,"34",NO,,"277"
-58.41805547568,-34.6508199279057,NUEVA POMPEYA,FOURNIER,"3014",LIZASO ESTEBAN,"155-057-4121;4302-3345",hg_argentina@yahoo.com.ar,3014 FOURNIER,Comuna 4,Nueva Pompeya,Edesur,S/D,NO,,"278"
-58.4222205489724,-34.6002282687966,GER. DE MARIA ELENA RODRIGUEZ,F. ACU¥A DE FIGUEROA,"926",CALBO PABLO DANIEL,4782-3356     155-503-7304,ingpablocalbo@yahoo.com.ar,"926 ACU¥A DE FIGUEROA, FRANCISCO",Comuna 5,Almagro,Edesur,,,,"279"
-58.5233122497306,-34.6196196963041,MAGLIONI ROSA LIA,FRANCISCO BAUZA,"2372",MAGGIO FABIAN ALEJANDRO,155-0294-566,fmaggio@speedy.com.ar,"2372 BAUZA, FRANCISCO",Comuna 10,Villa Real,Edesur,,,,"280"
-58.4706848123879,-34.6421164387241,GER. HOGARES CANADAS SRL,FRANCISCO BILBAO,"3533",ADRIANA MU¥IZ,"1561554283",aimuniz@hot.mail.com,"3533 BILBAO, FRANCISCO",Comuna 9,Parque Avellaneda,Edesur,,,,"281"
-58.4522665039108,-34.631976457282,EN CASA II,FRANCISCO BILBAO,"1753",BADALUCCO MARIANO,,consultoraprevention@gmail.com,"1753 BILBAO, FRANCISCO",Comuna 7,Parque Chacabuco,Edesur,S/D,NO,,"282"
-58.4563163936775,-34.6333575720634,SAN BRUNO,FRANCISCO BILBAO,2124/26,LATAPIE LILIANA BEATRIZ,"155-414-8082;4303-1804 int.6",lblatapie@yahoo.com.ar,"2124/26 BILBAO, FRANCISCO",Comuna 7,Flores,Edesur,,,,"283"
-58.5135795380653,-34.585773171782,GER. JARDIN DELSOL DE MARIANO QUIROGA,FRANCO,3429/31,FRANCO MARCELO DANIEL,153-8763313,m-dfranco@hotmail.com,3429/31 FRANCO,Comuna 11,Villa Devoto,Edenor,,,,"284"
-58.464080099632,-34.625676050223,RES. ANGELES,FRAY CAYETANO RODRIGUEZ,"368",FERREYRO JUAN JOSE,15-5304-3593 - 15-4046-3043,juan_barragan@fibertel.com.ar,368 FRAY CAYETANO RODRIGUEZ,Comuna 7,Flores,Edesur,,,,"285"
-58.4643145016212,-34.6248624128154,QUERENCIA DE MARIANA PEDROCCO,FRAY CAYETANO RODRIGUEZ,"437",CERVERA ROBERTO HUGO,4545-7331,r_cervera@yahoo.com,437 FRAY CAYETANO RODRIGUEZ,Comuna 7,Flores,Edesur,"29",NO,,"286"
-58.4587396681533,-34.6252929005934,GER. BELTRAN,FRAY LUIS BELTRAN,"165",CUENCA GUILLERMO JUAN,4797-8032,guillermocuenca@gmail.com,165 FRAY LUIS BELTRAN,Comuna 7,Flores,Edesur,,,,"287"
-58.458357268379,-34.6262493856035,LA MEDALLA MILAGROSA,FRAY LUIS BELTRAN,82/84,CARUSO JUAN CARLOS,"1544939173",juanc.caruso@gmail.com,82/84 FRAY LUIS BELTRAN,Comuna 7,Flores,Edesur,"31",NO,,"288"
-58.4503953171405,-34.5763459731899,SANTA CECILIA,FREIRE RAMON CAPITAN GRAL,"834",KOFFMAN OSVALDO EUGENIO,,okoffman@garben.com.ar,"834 FREIRE, RAMON, CAP. GRAL.",Comuna 13,Colegiales,Edenor,,,CAMBIO DE REPRESENTANTE TÉCNICO,"289"
-58.4033335435194,-34.5885087351653,GERIFRENCH,FRENCH,"2826",LIZASO ESTEBAN,"155-057-4121;4302-3345",hg_argentina@yahoo.com.ar,2826 FRENCH,Comuna 2,Recoleta,Edesur - Edenor,S/D,NO,,"290"
-58.4009999483481,-34.5897579444844,PAWEN S.R.L.,FRENCH,"2613",MINOTTI CARLOS AGUSTÖN,4523-4889,carlosminotti@yahoo.com.ar,2613 FRENCH,Comuna 2,Recoleta,Edenor,S/D,NO,,"291"
-58.4729552017561,-34.6169889463033,TEJAS VERDES,GALICIA,2680/86,FAILLA RICARDO  HECTOR,15-57155581,higyseg@fibertel.com.ar,2680/86 GALICIA,Comuna 11,Villa Gral. Mitre,Edesur,"43",SI,CUBRE LAS NECESIDADES BASICAS DEL ESTABLECIMIENTO,"292"
-58.4125383792976,-34.601135829615,DEL VALLE,GALLO,"734",BADALUCCO MARIANO,,consultoraprevention@gmail.com,734 GALLO,Comuna 5,Almagro,Edesur,S/D,NO,,"293"
-58.4114937728096,-34.5959203805298,SANTA SOFIA,GALLO,1268/70,MINOTTI CARLOS AGUSTÖN,4523-4889,carlosminotti@yahoo.com.ar,1268/70 GALLO,Comuna 2,Recoleta,Edenor,S/D,NO,,"294"
-58.4870616595872,-34.5674250822409,GER. GALVAN (LAUBERGE S.A.),GALVAN,"3052",MINOTTI CARLOS AGUSTÖN,4523-4889,carlosminotti@yahoo.com.ar,3052 GALVAN,Comuna 12,Villa Urquiza,Edenor,S/D,SI,LUCES Y HELADERA,"295"
-58.4774606962132,-34.5815785324671,RES. GER. KFAR SABIM,GANDARA,"2465",OKS HORACIO NARCISO,155-012-0894,h_oks@hotmail.com,2465 GANDARA,Comuna 15,Parque Chas,Edenor,,,,"296"
-58.4239735817063,-34.6023455538419,RES. GER. SUIZA SA,GASCON,741/45,CASTRO mario gabriel,156-496-6758,castromariog@gmail.com,741/45 GASCON,Comuna 5,Almagro,Edesur,,,,"297"
-58.4602378253981,-34.6273926487695,GER. SAN GERMAN,GAVILAN,"52",CARNEVALE MABEL,5252-0909 / / 1552474239,arquitecta.mc@gmail.com,52 GAVILAN,Comuna 7,Flores,Edesur,,,,"298"
-58.4636407365348,-34.6205838952425,GER. GAVILAN,GAVILAN,"772",ROMAGNOLI,"4301-6695;155-248-7652",gustavojromagnoli@speedy.com.ar,772 GAVILAN,Comuna 7,Flores,Edesur,,,,"299"
-58.4615851097125,-34.6247618618746,RES. GER. LUZ CENTER,GAVILAN,"378",LEIVA DAMIµN MARCELO,15-5039-3308,damianmarceloleiva@yahoo.com.ar,378 GAVILAN,Comuna 7,Flores,Edesur,,,,"300"
-58.4789493626725,-34.5793113205813,HOGAR DE ANCIANOS DE S. MANGANARO,GRAL BENJAMIN VICTORIA,"5366",ROMERO HUGO ALBERTO,155-014-2402  155-410-5368      4585-4681,ecocity@fibertel.com.ar,"5366 VICTORICA, BENJAMIN, GENERAL, AV.",Comuna 15,Parque Chas,Edenor,,,CAMBIO DE REPRESENTANTE TÉCNICO,"301"
-58.5020682182464,-34.6658238919663,PARA ABUELOS MI REFUGIO SRL,GRAL EUGENIO GARZON,6870/6854,CARNEVALE MABEL,5252-0909 / / 1552474239,arquitecta.mc@gmail.com,6870/6854 GARZON EUGENIO GENERAL,Comuna 9,Mataderos,Edesur,,,,"302"
-58.3764731533708,-34.6371193298456,CELINA RENEE FABRYKANT,GRAL HORNOS,"902",MINOTTI CARLOS AGUSTÖN,4523-4889,carlosminotti@yahoo.com.ar,"902 HORNOS, Gral.",Comuna 4,Barracas,Edesur,S/D,NO,,"303"
-58.4087466243039,-34.6252697173676,DEL ESTE,GRAL URQUIZA,1236/38,,,,"1236/38 URQUIZA, Gral.",Comuna 3,San Cristobal,Edesur,,,,"304"
-58.4768139312117,-34.6308502475091,GER. EL OASIS,GRAL VENANCIO FLORES,"3439",CUENCA GUILLERMO JUAN,4797-8032,guillermocuenca@gmail.com,"3439 FLORES, VENANCIO, Gral.",Comuna 10,Floresta,Edesur,,,,"305"
-58.4416619635643,-34.6175262589845,GER. FERPANO S A,GIORDANO BRUNO,"845",GALLOTTO FERNANDO H.,"154-993-2814;4639-6375",fmgroup@telecentro.com.ar,"845 BRUNO, GIORDANO",Comuna 6,Caballito,Edesur,,,,"306"
-58.4193612479083,-34.5954846551234,GORRITI,GORRITI,3868/74,HERMITTE ENRIQUE L.,,enrique-hermitte@hotmail.com,3868/74 GORRITI,Comuna 14,Palermo,Edenor,S/D,NO,,"307"
-58.4904798640443,-34.6288321266225,GER. BUEN AYRE,GOYA,"713",MINOTTI CARLOS AGUSTÖN,4523-4889,carlosminotti@yahoo.com.ar,713 GOYA,Comuna 10,Velez Sarsfield,Edesur,S/D,NO,,"308"
-58.4862755681287,-34.6329888132141,GER. MIRAFLORES,GOYA,"160",MINOTTI CARLOS AGUSTÖN,"1569650448",carlosminotti@yahoo.com.ar,160 GOYA,Comuna 10,Velez Sarsfield,Edesur,S/D,NO,,"309"
-58.3737530408522,-34.6404846522098,SANTA LUCIA DE J. ANGEL WOLOSZYN,GRAL.G. ARAOZ DE LAMADRID,"1561",LEIVA DAMIµN MARCELO,15-5039-3308,damianmarceloleiva@yahoo.com.ar,"1561 ARAOZ DE LAMADRID, GREGORIO, GRAL.",Comuna 4,Barracas,Edesur,,,,"310"
-58.465588808423,-34.6257464299584,GER. ARTIGAS REYLE SRL,GRAL. JOSE G. DE ARTIGAS,397/395,MINOTTI CARLOS AGUSTÖN,4523-4889,carlosminotti@yahoo.com.ar,"397/395 ARTIGAS, JOSE GERVASIO, GRAL.",Comuna 7,Flores,Edesur,S/D,NO,,"311"
-58.4658414350408,-34.6254307060494,ARTIGAS,GRAL. JOSE G. DE ARTIGAS,"428",SOUTO EDUARDO,154-141-4077,eduardosouto@speedy.com.ar,"428 ARTIGAS, JOSE GERVASIO, GRAL.",Comuna 7,Flores,Edesur,,,CAMBIO DE REPRESENTANTE TÉCNICO,"312"
-58.4760839454703,-34.6091041030752,RES. GER. CDH S.R.L.,GRAL. JOSE G. DE ARTIGAS,"1966",RIZZO MAXIMILIANO RAéL,4632-6031,inspeccioninmuebles@yahoo.com.ar,"1966 ARTIGAS, JOSE GERVASIO, GRAL.",Comuna 11,Villa Gral. Mitre,Edesur,,,,"313"
-58.5025733917991,-34.5779838284229,URGE,GRAL. JOSE G. DE ARTIGAS,"5393",RODRIGUEZ JOSE MARIA,15-6115-7062,josmar812003@yahoo.com.ar,"5393 ARTIGAS, JOSE GERVASIO, GRAL.",Comuna 12,Villa Pueyrredón,Edenor,,,,"314"
-58.4049213369722,-34.5960114576852,LAS LILAS,GRAL. LUCIO N.MANSILLA,"2632",MINOTTI CARLOS AGUSTÖN,4523-4889,carlosminotti@yahoo.com.ar,"2632 MANSILLA, LUCIO NORBERTO, GENERAL",Comuna 2,Recoleta,Edesur - Edenor,,,,"315"
-58.4556387214567,-34.5783815847197,LOS ENEBROS S.A.,GREGORIA PEREZ,"3460",CARNEVALE MABEL,5252-0909 / / 1552474239,arquitecta.mc@gmail.com,"3460 PEREZ, GREGORIA",Comuna 13,Colegiales,Edenor,,,,"316"
-58.4838225515432,-34.6558409986276,HOGAR SAN ANDRES,GREGORIO DE LAFERRERE,5045/51,ADRIANA MU¥IZ,"1561554283",aimuniz@hot.mail.com,"5045/51 LAFERRERE, GREGORIO de",Comuna 9,Mataderos,Edesur,,,,"317"
-58.4989598806771,-34.581539500226,AUGUSTUM,GRIVEO,"2475",LIZASO ESTEBAN,"155-057-4121;4302-3345",hg_argentina@yahoo.com.ar,2475 GRIVEO,Comuna 12,Villa Pueyrredón,Edenor,S/D,NO,,"318"
-58.4212173350643,-34.6006838612008,EN FAMILIA,GUARDIA VIEJA,4038/40,LIZASO ESTEBAN,"155-057-4121;4302-3345",hg_argentina@yahoo.com.ar,4038/40 GUARDIA VIEJA,Comuna 5,Almagro,Edesur,S/D,NO,,"319"
-58.4208793512005,-34.6007174921825,GER. EL REFUGIO,GUARDIA VIEJA,"4016",ADRIANA MU¥IZ,"1561554283",aimuniz@hot.mail.com,4016 GUARDIA VIEJA,Comuna 5,Almagro,Edesur,,,,"320"
-58.4291551904474,-34.5998194491276,DORA MERCEDES SPALT,GUARDIA VIEJA,"4563",ROMERO NESTOR DANIEL,"1559619164",nestoromero5@yahoo.com.ar,4563 GUARDIA VIEJA,Comuna 5,Almagro,Edesur,,,,"321"
-58.4304213078363,-34.6196763367538,CLINICA GER. GUAYAQUIL S.A,GUAYAQUIL,"143",MAGGIO FABIAN ALEJANDRO,155-0294-566,fmaggio@speedy.com.ar,143 GUAYAQUIL,Comuna 6,Caballito,Edesur,,,,"322"
-58.4463853035612,-34.5885782103598,CLUB TINITENSE RES. ASTURIANA,GUEVARA,"34",NOEL LEONARDO OSCAR,4943-6310/1565636929,leo@leonoel.com.ar,34 GUEVARA,Comuna 15,Chacarita,Edenor,,,CAMBIO DE REPRESENTANTE TÉCNICO,"323"
-58.4492568373599,-34.5872918122151,LOPEZ SILVANA CENTRO GER. DORREGO SRL,GUEVARA,"311",GARCÖA NORBERTO G.,,ngarcia@gmasociados.com.ar,311 GUEVARA,Comuna 15,Chacarita,Edenor,,,,"324"
-58.4206019396918,-34.5827383911501,ALTOS DEL BOTANICO SRL,GURRUCHAGA,2458/62,MINOTTI CARLOS AGUSTÖN,4523-4889,carlosminotti@yahoo.com.ar,2458/62 GURRUCHAGA,Comuna 14,Palermo,Edenor,S/D,NO,,"325"
-58.518834057955,-34.6012607668592,EL HOGAR DE LOS ABUELOS,HABANA,"4452",LIZASO ESTEBAN,"155-057-4121;4302-3345",hg_argentina@yahoo.com.ar,4452 HABANA,Comuna 11,Villa Devoto,Edesur,S/D,NO,,"326"
-58.517266070053,-34.6001810194245,LA MISION,HABANA,"4321",LIZASO ESTEBAN,"155-057-4121;4302-3345",hg_argentina@yahoo.com.ar,4321 HABANA,Comuna 11,Villa Devoto,Edesur,S/D,NO,,"327"
-58.4965662314166,-34.5971878782821,GER. DEL ROSARIO,HELGUERA,3458/60,LIZASO ESTEBAN,"155-057-4121;4302-3345",hg_argentina@yahoo.com.ar,3458/60 HELGUERA,Comuna 11,Vlla Del Parque,Edesur,S/D,SI,,"328"
-58.4010393451592,-34.6110030930089,LAS CINCO PALMERA SRL,HIPOLITO YRIGOYEN,2452/2460,MINOTTI CARLOS AGUSTÖN,4523-4889,carlosminotti@yahoo.com.ar,"2452/2460 YRIGOYEN, HIPOLITO",Comuna 3,Balvanera,Edesur,S/D,NO,,"329"
-58.4136116323527,-34.6127194294265,GER. DALMAU,HIPOLITO YRIGOYEN,"3314",ESPINOSA JOSE CARLOS,156-050-7553,ing.josecespinosa@gmail.com,"3314 YRIGOYEN, HIPOLITO",Comuna 5,Almagro,Edesur,,,,"330"
-58.4701860467179,-34.5770098245284,ESTABLECIMIENTO GER. NTRA SRA DE LOURDES,HOLMBERG,"1630",LIZASO ESTEBAN,"155-057-4121;4302-3345",hg_argentina@yahoo.com.ar,1630 HOLMBERG,Comuna 15,Villa Ortuzar,Edenor,S/D,NO,,"331"
-58.4213759419371,-34.6018044642815,INST. GER. DEL SOL,HUMAHUACA,"4037",RASTELLI NESTOR,154-4789-660,rastellin@yahoo.com.ar,4037 HUMAHUACA,Comuna 5,Almagro,Edesur,,,,"332"
-58.4033114742716,-34.6225308346147,RES. GER. EL CALDEN,HUMBERTO 1§,"2745",LIZASO ESTEBAN,"155-057-4121;4302-3345",hg_argentina@yahoo.com.ar,2745 HUMBERTO 1ø,Comuna 3,San Cristobal,Edesur,S/D,NO,,"333"
-58.4051995643575,-34.622839887473,PATRICIA MONICA KOSLOWSKI,HUMBERTO 1§,"2853",MINOTTI CARLOS AGUSTÖN,4523-4889,carlosminotti@yahoo.com.ar,2853 HUMBERTO 1ø,Comuna 3,San Cristobal,Edesur,,,,"334"
-58.4095668557362,-34.6236447845084,SANTA PATRICIA,HUMBERTO 1§,"3140",MINOTTI CARLOS AGUSTÖN,4523-4889,carlosminotti@yahoo.com.ar,3140 HUMBERTO 1ø,Comuna 3,San Cristobal,Edesur,S/D,SI,ESTABLECIMIENTO COMPLETO,"335"
-58.3794192236697,-34.6208657726639,INST. GER. 9 DE JULIO,HUMBERTO 1§,"953",LIZASO ESTEBAN,"155-057-4121;4302-3345",hg_argentina@yahoo.com.ar,953 HUMBERTO 1ø,Comuna 1,Constitución,Edesur,S/D,NO,,"336"
-58.5272164474293,-34.6416194017856,GUSTAVO OMAR CANOSA GER. NTRA SRA DE LUJAN,IBARROLA,"7177",LIZASO ESTEBAN,"155-057-4121;4302-3345",hg_argentina@yahoo.com.ar,7177 IBARROLA,Comuna 9,Liniers,Edesur,S/D,NO,,"337"
-58.4012194588814,-34.6300149268152,RES. GER. ANTA¥OS,INCLAN,"2625",LIZASO ESTEBAN,"155-057-4121;4302-3345",hg_argentina@yahoo.com.ar,2625 INCLAN,Comuna 4,Parque Patricios,Edesur,S/D,NO,,"338"
-58.4875607646893,-34.5578165930072,GER. RENACER,JARAMILLO,"4464",BRULLO LEONARDO,"155-750-2204; 4307-2606",brullohsm@yahoo.com.ar,4464 JARAMILLO,Comuna 12,Saavedra,Edenor,,,,"339"
-58.4094586007474,-34.6053040709965,SARITA COLONIA,JEAN JAURES,"398",GOMEZ NESTOR OMAR,155-429-2235,ngomez@agea.com.ar,"398 JAURES, JEAN",Comuna 3,Balvanera,Edesur,,,,"340"
-58.5074161504333,-34.6009226925266,ENRIQUE CLAUDIO TOPPANO,JOAQUIN V. GONZALEZ,"3691",CISNEROS NILDA JUSTA,"1540484958",dalnijc@yahoo.com.ar,"3691 GONZALEZ, JOAQUIN V.",Comuna 11,Villa Devoto,Edesur,,,,"341"
-58.5094953767707,-34.598623393754,GLADYS BEATRIZ ALVAREZ,JOAQUIN V. GONZALEZ,4015 /17,CARNEVALE MABEL,5252-0909 / / 1552474239,arquitecta.mc@gmail.com,"4015 /17 GONZALEZ, JOAQUIN V.",Comuna 11,Villa Devoto,Edesur,,,,"342"
-58.4945226617107,-34.6152866299109,EMERITA SA,JOAQUIN V. GONZALEZ,"1974",PLUTT MARCELO H.,,mplutt@hotmail.com,"1974 GONZALEZ, JOAQUIN V.",Comuna 10,Monte Castro,Edesur,,,,"343"
-58.4564029247245,-34.6309451582082,GER. DR DARDER,JOSE BONIFACIO,"2040",ROMAGNOLI,"4301-6695;155-248-7652",gustavojromagnoli@speedy.com.ar,"2040 BONIFACIO, JOSE",Comuna 7,Flores,Edesur,,,,"344"
-58.4561970932766,-34.630783011744,GER. CONVIVENCIA,JOSE BONIFACIO,"2015",FEDERICO SANTIAGO RAUL,4506-5101 / 15-5654-7317,"info@naos-arquitectura.com.ar; sfederico.arq@gmail.com","2015 BONIFACIO, JOSE",Comuna 7,Flores,Edesur,,,,"345"
-58.4634760450125,-34.633133686323,RES. GER. DEL SOL SRL,JOSE BONIFACIO,"2568",FIGUEIRAS OMAR L.,1545-796397 - 4296-0969,omarfigueiras@yahoo.com.ar,"2568 BONIFACIO, JOSE",Comuna 7,Flores,Edesur,,,,"346"
-58.442186013348,-34.6613197772305,RES. GER. LA CASA DE MAMA,JOSE MARTI,"3133",LIZASO ESTEBAN,"155-057-4121;4302-3345",hg_argentina@yahoo.com.ar,"3133 MARTI, JOSE",Comuna 8,Villa Soldati,Edesur,S/D,NO,,"347"
-58.4686843000617,-34.6397652059889,RES. DI SALVO,JOSE MARTI,718/22,ROVENZANO SERGIO,155-1550741,higieneyseguridadslr@yahoo.com.ar,"718/22 MARTI, JOSE",Comuna 7,Flores,Edesur,,,,"348"
-58.5059949836027,-34.6035876489257,ESTABLECIMIENTO GER. GERUSIA II,JOSE PEDRO VARELA,"3845",VOLONT NESTOR HUGO,,volontenestor@gmail.com,"3845 VARELA, JOSE PEDRO",Comuna 11,Villa Devoto,Edesur,,,,"349"
-58.4760603473214,-34.6072043881903,LA NUEVA PRIMAVERA S.R.L.,JUAN AGUSTIN GARCIA,"2416",FRANZ GUSTAVO,4791-0556,gffranz@fibertel.com.ar,"2416 GARCIA, JUAN AGUSTIN",Comuna 11,Villa Gral. Mitre,Edesur,,,,"350"
-58.4275654751815,-34.5950914553012,DR. RICARDO OVEJERO,JULIAN ALVAREZ,"1180",MARASCO JOSE ENRIQUE,4629-2905,jemarasco@hotmail.com,"1180 ALVAREZ, JULIAN",Comuna 14,Palermo,Edenor,"25",NO,,"351"
-58.4177430865017,-34.5886410211182,GER. NTRA SRA DE GUADALUPE3 S A,JULIAN ALVAREZ,"2215",ROMAGNOLI,"4301-6695;155-248-7652",gustavojromagnoli@speedy.com.ar,"2215 ALVAREZ, JULIAN",Comuna 14,Palermo,Edenor,,,,"352"
-58.4382495286684,-34.6019695937069,DEL JAZMIN,JULIAN ALVAREZ,"224",LIZASO ESTEBAN,"155-057-4121;4302-3345",hg_argentina@yahoo.com.ar,"224 ALVAREZ, JULIAN",Comuna 15,Villa Crespo,Edesur,S/D,NO,,"353"
-58.404080240229,-34.5898053338031,MEDIGER SRL,JUNCAL,"2676",PADILLA JAVIER SANTIAGO,4961-9056,gestion@capacitarweb.com.ar,2676 JUNCAL,Comuna 2,Recoleta,Edesur - Edenor,,,,"354"
-58.3794287068019,-34.592826565323,MIAMI HOUSE SRL,JUNCAL,"857",KURZ CARLOS,"48625282",siarthys@speedy.com.ar,857 JUNCAL,Comuna 1,Retiro,Edesur,,,,"355"
-58.4641739954471,-34.5665218973696,ESTABLECIMIENTO GER.,JURAMENTO,"3184",CERVERA ROBERTO HUGO,4545-7331,r_cervera@yahoo.com,3184 JURAMENTO,Comuna 13,Belgrano,Edenor,"18",NO,,"356"
-58.4521214405424,-34.5636709093248,GER. RES. DEL SOL S.R.L.,LA PAMPA,"2184",ROMAGNOLI,"4301-6695;155-248-7652",gustavojromagnoli@speedy.com.ar,2184 LA PAMPA,Comuna 13,Belgrano,Edenor,,,,"357"
-58.461192441847,-34.5688504374265,FERNANDEZ BEATRIZ AURELIA,LA PAMPA,"3119",GOMEZ DANIEL A.,"1540716629",gomez_daniel28@yahoo.com.ar,3119 LA PAMPA,Comuna 13,Belgrano,Edenor,"20",NO,,"358"
-58.4819319845035,-34.5807800534603,LA PAMPA 5277 SRL,LA PAMPA,"5277",LIZASO ESTEBAN,"155-057-4121;4302-3345",hg_argentina@yahoo.com.ar,5277 LA PAMPA,Comuna 12,Villa Urquiza,Edenor,S/D,NO,,"359"
-58.4668927492207,-34.6334435638386,HOGAR SAN GENARO I,LAFUENTE,"248",CASTRO mario gabriel,156-496-6758,castromariog@gmail.com,248 LAFUENTE,Comuna 7,Flores,Edesur,,,,"360"
-58.4674707836302,-34.6323851594316,GER. VIRGEN DE POMPEYA DE FELMA S.R.L.,LAFUENTE,"153",ROMAGNOLI,"4301-6695;155-248-7652",gustavojromagnoli@speedy.com.ar,153 LAFUENTE,Comuna 7,Flores,Edesur,,,,"361"
-58.4765029638103,-34.6421875340378,NUESTROS ABUELOS,LAGUNA,"852",LIZASO ESTEBAN,"155-057-4121;4302-3345",hg_argentina@yahoo.com.ar,852 LAGUNA,Comuna 9,Parque Avellaneda,Edesur,S/D,NO,,"362"
-58.5117521554635,-34.6438045832573,NTRA SE¥ORA DE LUJAN S.R.L,LARRAZABAL,"451",ADRIANA MU¥IZ,"1561554283",aimuniz@hot.mail.com,451 LARRAZABAL,Comuna 9,Liniers,Edesur,,,,"363"
-58.5051341654444,-34.5770046538616,GER. EL SOL,LARSEN,"2594",CERVERA ROBERTO HUGO,4545-7331,r_cervera@yahoo.com,2594 LARSEN,Comuna 12,Villa Pueyrredón,Edenor,"42",NO,,"364"
-58.4247446327554,-34.6455150904101,SANTA PAULA,LAS PALMAS,"2452",LIZASO ESTEBAN,"155-057-4121;4302-3345",hg_argentina@yahoo.com.ar,2452 LAS PALMAS,Comuna 4,Nueva Pompeya,Edesur,S/D,NO,,"365"
-58.4535018810056,-34.6361548635911,RINCONCITO DE LUZ,LAUTARO,"845",PICK PATRICIA,"154-400-0847;4702-6493",patriciapick@fibertel.com.ar,845 LAUTARO,Comuna 7,Flores,Edesur,,,,"366"
-58.4249081466872,-34.5944625377345,RES. GER. SAN GABRIEL,LAVALLEJA,"1352",ARIAS ANDRES LEONARDO,,hg_argentina@yahoo.com.ar,1352 LAVALLEJA,Comuna 14,Palermo,Edenor,S/D,NO,,"367"
-58.4965186140411,-34.6038449664266,RES. GER. DE VILLA DEL PARQUE,LAVALLOL,"2851",ESPINOSA JOSE CARLOS,156-050-7553,ing.josecespinosa@gmail.com,2851 LLAVALLOL,Comuna 11,Vlla Del Parque,Edesur,,,,"368"
-58.4215275891627,-34.6108418213413,EL SOLAR DE DON BOSCO,LEZICA,"3917",MARASCO JOSE ENRIQUE,4629-2905 1554704530,jemarasco@hotmail.com,3917 LEZICA,Comuna 5,Almagro,Edesur,"38",NO,,"369"
-58.4247650537217,-34.6118379125719,ANTONPV POPOW ROSSETTI PABLO SH,LEZICA,"4142",GOMEZ DANIEL A.,"1540716629",gomez_daniel28@yahoo.com.ar,4142 LEZICA,Comuna 5,Almagro,Edesur,"25",NO,,"370"
-58.5178994721863,-34.6489146483484,MI SEGUNDO HOGAR,LISANDRO DE LA TORRE,"938",MINOTTI CARLOS AGUSTÖN,4523-4889,carlosminotti@yahoo.com.ar,"938 DE LA TORRE, LISANDRO",Comuna 9,Liniers,Edesur,S/D,NO,,"371"
-58.4952949498896,-34.6232625091157,GER. SAN CAYETANO,LOBOS,"475",COLLADO RODRIGO,155-893-8506,sanglarcollado@gmail.com,475 LOBOS,Comuna 10,Floresta,Edesur,,,CAMBIO DE REPRESENTANTE TÉCNICO,"372"
-58.4437092385095,-34.5878817646961,GERIATRIKA S.R.L. HOGAR LOYOLA,LOYOLA,"1545",GORRIZ JUAN CRUZ,,juancgorriz@gmail.com,1545 LOYOLA,Comuna 15,Chacarita,Edenor,,,,"373"
-58.4737445017349,-34.577868160171,RES. DEL LIBERTADOR S.R.L.,LUGONES,"1678",CARNEVALE MABEL,5252-0909 / / 1552474239,arquitecta.mc@gmail.com,1678 LUGONES,Comuna 15,Villa Ortuzar,Edenor,,,,"374"
-58.5293169704631,-34.6215701853156,ALICIA N SEPULVEDA,M. PORCEL DE PERALTA,1473/75,ROMERO NESTOR DANIEL,"1559619164",nestoromero5@yahoo.com.ar,"1473/75 PORCEL DE PERALTA, MANUEL",Comuna 10,Villa Real,Edesur,,,,"375"
-58.4670199425881,-34.5590027821262,GERONTA S.A.,MANUEL UGARTE,"2954",VITA EDUARDO,4790-4399,sivid@fibertel.com.ar,"2954 UGARTE, MANUEL",Comuna 13,Belgrano,Edenor,,,,"376"
-58.4660108717058,-34.5583539948524,NUEVA VIDA Y NUEVO HOGAR S.A.,MANUEL UGARTE,"2845",MINOTTI CARLOS AGUSTÖN,4523-4889,carlosminotti@yahoo.com.ar,"2845 UGARTE, MANUEL",Comuna 13,Belgrano,Edenor,S/D,NO,,"377"
-58.4656956332858,-34.5456015001821,GER. MANZANARES DEL SOL,MANZANARES,"2036",LIZASO ESTEBAN,"155-057-4121;4302-3345",hg_argentina@yahoo.com.ar,2036 MANZANARES,Comuna 13,Nuñez,Edenor,S/D,NO,,"378"
-58.4992265655974,-34.6389832549415,HOGAR MIS ABUELAS,MANZONI,"121",MINOTTI CARLOS AGUSTÖN,4523-4889,carlosminotti@yahoo.com.ar,121 MANZONI,Comuna 10,Villa Luro,Edesur,S/D,NO,,"379"
-58.4902063516481,-34.6046230126228,RES. GER. TERCERA EDAD,MARCOS SASTRE,"3073",LIZASO ESTEBAN,"155-057-4121;4302-3345",hg_argentina@yahoo.com.ar,"3073 SASTRE, MARCOS",Comuna 11,Vlla Del Parque,Edesur,S/D,NO,,"380"
-58.4767191464211,-34.63848525134,EL JARDIN DE LA ARMONIA,MARIANO ACOSTA,"515",BOURET CARLOS,4631-8409,cabouret@gmail.com,"515 ACOSTA, MARIANO",Comuna 9,Parque Avellaneda,Edesur,,,,"381"
-58.4802874308712,-34.6356839015798,ANTUAL S.R.L,MARIANO ACOSTA,"171",CARNEVALE MABEL,5252-0909 / / 1552474239,arquitecta.mc@gmail.com,"171 ACOSTA, MARIANO",Comuna 10,Velez Sarsfield,Edesur,,,,"382"
-58.4163712571927,-34.6019187304092,LA CASA DE MIS ABUELOS,MARIO BRAVO,651 - 655,BERCOVSKY JORGE EDUARDO,155-827-0062,jorgeberco@yahoo.com.ar,"651 - 655 BRAVO, MARIO",Comuna 5,Almagro,Edesur,,,,"383"
-58.4607529086372,-34.567238872868,GER. MODELO DEL PALMAR S.A.,SUCRE,3001/29,MINOTTI CARLOS AGUSTÖN,4523-4889,carlosminotti@yahoo.com.ar,"3001/29 SUCRE, ANTONIO JOSE de, Mcal.",Comuna 13,Belgrano,Edenor,S/D,NO,,"384"
-58.4498885370216,-34.5608113801199,STELLA MARIS,MCAL ANTONIO JOSE DE SUCRE,"1835",DALMASSO JUAN CARLOS,15-5726-7345/4786-3741,jcdalmasso@nat-safety.com,"1835 SUCRE, ANTONIO JOSE de, Mcal.",Comuna 13,Belgrano,Edenor,,,CAMBIO DE REPRESENTANTE TÉCNICO,"385"
-58.4744555538174,-34.6420235079799,GER. HERIBERTO ROMAN MERCADO ROMERO,MARTINEZ CASTRO,"828",VACA VILLARROEL MAURO HUGO,15-5041-0924,vacavi@uolsinectis.com.ar,828 MARTINEZ CASTRO,Comuna 9,Parque Avellaneda,Edesur,,,,"386"
-58.4399513931067,-34.5700014801843,GER. SAN BENITO DEL PILAR,MAURE,"2175",ARIAS ANDRES LEONARDO,,hg_argentina@yahoo.com.ar,2175 MAURE,Comuna 14,Palermo,Edenor,S/D,NO,,"387"
-58.4158447528247,-34.614854688872,SUCESION DE M G DE CANALE,MAZA,336/42,SOUTO EDUARDO,154-141-4077,eduardosouto@speedy.com.ar,336/42  MAZA,Comuna 5,Almagro,Edesur,,,CAMBIO DE REPRESENTANTE TÉCNICO,"388"
-58.4146252424495,-34.6254281013895,SAGRADA FAMILIA,MAZA,"1210",CUENCA GUILLERMO JUAN,4797-8032,guillermocuenca@gmail.com,1210 MAZA,Comuna 5,Boedo,Edesur,,,,"389"
-58.4155837628109,-34.6165061041075,JAVIER LEANDRO AISEMBERG,MAZA,"456",STRAFACE GABRIEL,"4521-2197; 4521-7033",info@asesorarweb.com,456 MAZA,Comuna 5,Almagro,Edesur,,,,"390"
-58.4754726483933,-34.6510264266872,INST. GER. SAN LUCAS,MEDINA,"1650",LIZASO ESTEBAN,"155-057-4121;4302-3345",hg_argentina@yahoo.com.ar,1650 MEDINA,Comuna 9,Parque Avellaneda,Edesur,S/D,NO,,"391"
-58.4773684478559,-34.5584453467958,OYOLI S.A.,MELIAN,"3250",ZWIEBEL MARCELO,47035994/96,info@mzconsultores.com.ar,3250 MELIAN AV.,Comuna 12,Coghlan,Edenor,,,,"392"
-58.4853687938279,-34.5977669820293,OSVALDO MARCELINO CONDE,MELINCUE,2480/82,MARQUES DIAS RAFAEL GUSTAVO,46298461 ( 1545314674),primaconsultores@uolsinectis.com.ar,2480/82 MELINCUE,Comuna 11,Vlla Del Parque,Edesur,,,,"393"
-58.4884284704022,-34.599485761256,SAN CARLOS,MELINCUE,"2723",BERCOVSKY JORGE EDUARDO,155-827-0062,jorgeberco@yahoo.com.ar,2723 MELINCUE,Comuna 11,Vlla Del Parque,Edesur,,,,"394"
-58.4505943864156,-34.6164064959124,RES. ARCO IRIS,MENDEZ DE ANDES,"1139",MARTINEZ ELISEO FRANCISCO,4628-8855,elicefranc@hotmail.com,1139 MENDEZ DE ANDES,Comuna 6,Caballito,Edesur,,,,"395"
-58.4847378100991,-34.6303678206148,LONG LIFE S.R.L.,MERCEDES,"350",BURGOS SERGIO FABIAN,4654-8721  154-0664364,sfburgos@gmail.com,350 MERCEDES,Comuna 10,Floresta,Edesur,,,,"396"
-58.4250044329584,-34.620374628915,A¥OS DORADOS,MEXICO,"4167",LIZASO ESTEBAN,"155-057-4121;4302-3345",hg_argentina@yahoo.com.ar,4167 MEXICO,Comuna 5,Almagro,Edesur,S/D,NO,,"397"
-58.4088392188885,-34.618494764033,VIRGEN DEL SOCORRO,MEXICO,"3061",ROMAGNOLI,"4301-6695;155-248-7652",gustavojromagnoli@speedy.com.ar,3061 MEXICO,Comuna 3,Balvanera,Edesur,,,,"398"
-58.5089654702222,-34.6256230632934,HOGAR SAN NICOLAS,MIRANDA,"5269",HERMIDA DIEGO RODOLFO,"1565206678",diego_hermida72@yahoo.com.ar,5269 MIRANDA,Comuna 10,Monte Castro,Edesur,"24",NO,,"399"
-58.4496326072766,-34.6245303796396,GER. ST. LUCAS S.R.L,MIRO,"54",MINOTTI CARLOS AGUSTÖN,4523-4889,carlosminotti@yahoo.com.ar,54 MIRO,Comuna 6,Caballito,Edesur,,NO,S/D,"400"
-58.4948433572777,-34.6281472951719,OLDRICK ROBERTSON,MOCTEZUMA,1010/14,CANCINA MIGUEL ANGEL,"154-949-9440;4621-5111",miguelangelcancina@yahoo.com.ar,1010/14 MOCTEZUMA,Comuna 10,Velez Sarsfield,Edesur,S/D,SI,"PLANTA BAJA, ALTA Y SECTOR FONDO","401"
-58.5026867420226,-34.6351127024655,"""MARIA ELENA FURIASE""",MOLIERE,"332",ROMERO NESTOR DANIEL,"1559619164",nestoromero5@yahoo.com.ar,332 MOLIERE,Comuna 10,Villa Luro,Edesur,,,,"402"
-58.4864279696551,-34.6447547985378,HERMANITAS DE LOS  ANCIANOS DESAMPARADOS,MORETO,"767",RAICH GUSTAVO CLAUDIO,155-1575716,g_raich@yahoo.com.ar,767 MORETO,Comuna 9,Parque Avellaneda,Edesur,,,,"403"
-58.4663169383184,-34.6222857632117,MAURA,MORON,"2432",SOUTO EDUARDO,154-141-4077,eduardosouto@speedy.com.ar,2432 MORON,Comuna 7,Flores,Edesur,,,CAMBIO DE REPRESENTANTE TÉCNICO,"404"
-58.4926776294514,-34.6301533243384,INST. BELLAFAY S.R.L,MORON,"4520",CERVERA ROBERTO HUGO,4545-7331,r_cervera@yahoo.com,4520 MORON,Comuna 10,Velez Sarsfield,Edesur,"65",NO,,"405"
-58.4736056857258,-34.6245033204086,HOGAR DE ANCIANOS MOSHABZEKENIM,MORON,2966/68,CASTRO mario gabriel,156-496-6758,castromariog@gmail.com,2966/68 MORON,Comuna 7,Flores,Edesur,,,,"406"
-58.4257857264988,-34.6260888609655,DULCE HOGAR I,MU¥IZ,"1009",LIZASO ESTEBAN,"155-057-4121;4302-3345",hg_argentina@yahoo.com.ar,1009 MU¥IZ,Comuna 5,Boedo,Edesur,S/D,NO,,"407"
-58.4224294423468,-34.6397294729085,SAN MARCOS,MU¥IZ,"2175",ADRIANA MU¥IZ,"1561554283",aimuniz@hot.mail.com,2175 MU¥IZ,Comuna 5,Boedo,Edesur,,,,"408"
-58.4943654663655,-34.5742217215129,PILAR VAZQUEZ LOPEZ DE VILARI¥O,NAHUEL HUAPI,"5581",CARNEVALE MABEL,5252-0909 / / 1552474239,arquitecta.mc@gmail.com,5581 NAHUEL HUAPI,Comuna 12,Villa Urquiza,Edenor,,,,"409"
-58.4999551623434,-34.5972813397678,RES. GER. NORMANDY,NAVARRO,"3277",LIZASO ESTEBAN,"155-057-4121;4302-3345",hg_argentina@yahoo.com.ar,3277 NAVARRO,Comuna 11,Villa Devoto,Edesur,S/D,NO,,"410"
-58.507695193047,-34.6020687886862,RES. PARA MAYORES EL PINAR DE DEVOTO,NAVARRO,"3895",LIZASO ESTEBAN,"155-057-4121;4302-3345",hg_argentina@yahoo.com.ar,3895 NAVARRO,Comuna 11,Villa Devoto,Edesur,S/D,NO,,"411"
-58.4383307868391,-34.6158958797704,EST. GER. SANTA ROSA DE LIMA,NEUQUEN,551/553,FABAL GUSTAVO,"1564817483",gustavofabal@yahoo.com.ar,551/553 NEUQUEN,Comuna 6,Caballito,Edesur,,,,"412"
-58.4345019032059,-34.5808200645367,PLAZA ITALIA DE SEBASTIµN MOREL,NICARAGUA,5701/11,MINOTTI CARLOS AGUSTÖN,4523-4889,carlosminotti@yahoo.com.ar,5701/11 NICARAGUA,Comuna 14,Palermo,Edenor,,,,"413"
-58.459265465468,-34.6077455934092,ALICIA ELBA DOTTI,NICASIO ORO¥O,"1538",ADRIANA MU¥IZ,"1561554283",aimuniz@hot.mail.com,"1538 ORO¥O, NICASIO",Comuna 6,Caballito,Edesur,,,,"414"
-58.4421524315219,-34.6270588258325,EN CASA,NICOLAS E. VIDELA,"530",BADALUCCO MARIANO,,consultoraprevention@gmail.com,"530 VIDELA, NICOLAS E.",Comuna 6,Caballito,Edesur,S/D,NO,,"415"
-58.4949609220261,-34.5645913200326,EL JARDÖN DE LOS ABUELOS,NU¥EZ,"5346",LIZASO ESTEBAN,"155-057-4121;4302-3345",hg_argentina@yahoo.com.ar,5346 NU¥EZ,Comuna 12,Villa Urquiza,Edenor,S/D,NO,,"416"
-58.456583487077,-34.5555674577341,ANGEL MIGUEL DELLA VECCNIA,OïHIGGINS,"2555",ALIMENA EDUARDO NAHUEL,154-421-9217,"nahuel@alimena.com.ar, lauraperezarias@sion.com",2555 O'HIGGINS,Comuna 13,Belgrano,Edenor,,,,"417"
-58.5143989573559,-34.6446760826958,HOGAR MI ESPERANZA,OLIDEN,"576",ADRIANA MU¥IZ,"1561554283",aimuniz@hot.mail.com,576 OLIDEN,Comuna 9,Liniers,Edesur,,,,"418"
-58.5056676935052,-34.6517795256173,JUAN Y AGUSTINA GUERE¥O,OLIDEN,"1361",LIZASO ESTEBAN,"155-057-4121;4302-3345",hg_argentina@yahoo.com.ar,1361 OLIDEN,Comuna 9,Mataderos,Edesur,S/D,NO,,"419"
-58.4512607182658,-34.5831107782629,ESTABLECIMIENTO GER. SAN JORGE,OLLEROS,3718/70,LIZASO ESTEBAN,"155-057-4121;4302-3345",hg_argentina@yahoo.com.ar,3718 OLLEROS,Comuna 15,Chacarita,Edenor,S/D,NO,,"420"
-58.4489480331221,-34.5791796942473,OLZA SRL,OLLEROS,3282/84/88/90,SERPERO SILVINA,3526-5394 // 15-5713-8785,sserpero@asasconsultora.com.ar,3282/84/88/90 OLLEROS,Comuna 13,Colegiales,Edenor,,,,"421"
-58.4341292402195,-34.6098933577792,LA SOLEADA,OTAMENDI,"583",OLIVERA FEDERICO,4962-3621/15-6049-0403,folivera1@gmail.com,583 OTAMENDI,Comuna 6,Caballito,Edesur,,,,"422"
-58.4837112158987,-34.5736615828627,SANTA MARIA CAMIR,PACHECO,"2325",FAVETTO GRACIELA CRISTINA,4753-2859,gracielafavetto@hotmail.com,2325 PACHECO,Comuna 12,Villa Urquiza,Edenor,,,,"423"
-58.4820698273845,-34.5755447682,OLIMPIA RES. PARA MAYORES SRL,PACHECO,"2124",MINOTTI CARLOS AGUSTÖN,4523-4889,carlosminotti@yahoo.com.ar,2124 PACHECO,Comuna 12,Villa Urquiza,Edenor,S/D,NO,,"424"
-58.4833350124751,-34.5741345847464,MIRABELLA TAIBI Y VILARI¥O S.R.L.,PACHECO,2271/73,MINOTTI CARLOS AGUSTÖN,4523-4889,carlosminotti@yahoo.com.ar,2271/73 PACHECO,Comuna 12,Villa Urquiza,Edenor,S/D,NO,,"425"
-58.4655289369837,-34.6194748059302,NONNI S.R.L,PAEZ,2315 CABA,ADRIANA MU¥IZ,"1561554283",aimuniz@hot.mail.com,2315 CABA PAEZ,Comuna 7,Flores,Edesur,,,,"426"
-58.425452598354,-34.600988506138,ARQUIMEDICA SRL,PALESTINA (EX RAWSON),"838",CERVERA ROBERTO HUGO,4545-7331,r_cervera@yahoo.com,838 PALESTINA,Comuna 5,Almagro,Edesur,"19",NO,,"427"
-58.4016051235924,-34.597805278667,CENTRO DE GERIATRIA DEL NORTE SA,PARAGUAY,"2367",MINOTTI CARLOS AGUSTÖN,"4301-6695;155-248-7652",carlosminotti@yahoo.com.ar,2367 PARAGUAY,Comuna 2,Recoleta,Edesur - Edenor,S/D,NO,,"428"
-58.4029285045555,-34.597576142599,INST. GER. DE REHABILITACION INTEGRAL II,PARAGUAY,"2465",MINOTTI CARLOS AGUSTÖN,4523-4889,carlosminotti@yahoo.com.ar,2465 PARAGUAY,Comuna 2,Recoleta,Edesur - Edenor,S/D,NO,,"429"
-58.4024434595172,-34.5977522366786,GER. CARPE DIEM,PARAGUAY,"2426",MINOTTI CARLOS AGUSTÖN,4523-4889,carlosminotti@yahoo.com.ar,2426 PARAGUAY,Comuna 2,Recoleta,Edesur - Edenor,S/D,NO,,"430"
-58.4036443049924,-34.5975442969446,GER. MATER DE SANT S.A.,PARAGUAY,"2512",ROMAGNOLI,"4301-6695;155-248-7652",gustavojromagnoli@speedy.com.ar,2512 PARAGUAY,Comuna 2,Recoleta,Edesur - Edenor,,,,"431"
-58.5185183181923,-34.6020729189993,VILLA GRA¥A,PAREJA,"4473",LIZASO ESTEBAN,"155-057-4121;4302-3345",hg_argentina@yahoo.com.ar,4473 PAREJA,Comuna 11,Villa Devoto,Edesur,S/D,NO,,"432"
-58.4759213530054,-34.5488599806838,CONGREGACION CASA DE HNAS DE LOS POBRES DE SANTA CATALINADE SIENA,PAROISSIEN,3021/57/67,CARRIERI MISAEL JOSE,15-4163-2400,"misaelcarrieri@yahoo.com.ar;misaelcarrieri@hotmail.com",3021/57/67 PAROISSIEN,Comuna 12,Saavedra,Edenor,"70",NO,,"433"
-58.4747413865733,-34.6215854651882,EDITH,PJE JUAN F. DE LA ROBLA,"990",MINOTTI CARLOS AGUSTÖN,4523-4889,carlosminotti@yahoo.com.ar,"990 ROBLA, JUAN F., de la",Comuna 7,Flores,Edesur,,,,"434"
-58.4155287496247,-34.6138146752169,FELICITA ARIAS Y ANTONIO ALVAREZ,PASAJE LUCERO,"245",MATEU MARCO,15-31381917,marcomateu@yahoo.com.ar,245 LUCERO,Comuna 5,Almagro,Edesur,,,CAMBIO DE REPRESENTANTE TÉCNICO,"435"
-58.4548386664108,-34.6094341072265,GER. PAYSANDU S.R.L.,PAYSANDU,1273/75/79,MINOTTI CARLOS AGUSTÖN,4523-4889,carlosminotti@yahoo.com.ar,1273/75/79 PAYSANDU,Comuna 6,Caballito,Edesur,S/D,NO,,"436"
-58.4633967156999,-34.6308352380674,PEDERNERA 130 SRL,PEDERNERA,"130",PICK PATRICIA,"154-400-0847;4702-6493",patriciapick@fibertel.com.ar,130 PEDERNERA,Comuna 7,Flores,Edesur,,,,"437"
-58.4897839300934,-34.5980426415383,ST ANDRÔ S.R.L,PEDRO LOZANO,"2747",CARNEVALE MABEL,5252-0909 /  1552474239,arquitecta.mc@gmail.com,"2747 LOZANO, PEDRO",Comuna 11,Vlla Del Parque,Edesur,,,,"438"
-58.5137539913154,-34.6126568017555,"RES. GER. ""SAN CAYETANO""",PEDRO LOZANO,"4820",GREGORIO ANDRES,,info@consultora-crt.com.ar,"4820 LOZANO, PEDRO",Comuna 11,Villa Devoto,Edesur,,,,"439"
-58.5269614820354,-34.6121859756773,ESTABLECIMIENTO GER. SAN JOSE,PEDRO MORAN,"5276",LIZASO ESTEBAN,"155-057-4121;4302-3345",hg_argentina@yahoo.com.ar,"5276 MORAN, PEDRO",Comuna 11,Villa Devoto,Edesur,S/D,NO,,"440"
-58.3963269057659,-34.5916008656936,ILUVATAR S.R.L.,PE¥A,"2138",MINOTTI CARLOS AGUSTÖN,4523-4889,carlosminotti@yahoo.com.ar,2138 PE¥A,Comuna 2,Recoleta,Edesur,S/D,NO,,"441"
-58.4183814432746,-34.6327234461991,RES. GER. PEREYRA,PEREYRA,"1680",FEBRERO LUCIANO,15-6471-4621 -  39681325,lucianofebrero@gmail.com,1680/83 PEREYRA,Comuna 5,Boedo,Edesur,,,,"442"
-58.4683720496498,-34.6434376155222,RES. PARA LA 3RA EDAD EMUNA S. R. L.,PERGAMINO,"1044",CERIMEDO CARLOS ALFREDO,15-62749504,ingcerimedoutnfrba@yahoo.com.ar,1044 PERGAMINO,Comuna 9,Parque Avellaneda,Edesur,,,,"443"
-58.3740452282522,-34.6250746792624,RES. PERU PAMI,PERU,"1457",MAGNIN MARIO EDUARDO,,m_magnin@siconsultores.com.ar,1457 PERU,Comuna 1,San Telmo,Edesur,,,,"444"
-58.3972781356561,-34.6253590635887,HOGAR CASA DEL SOL - IDEAS,PICHINCHA,"1372",RODRIGUEZ PABLO JAVIER,"4228-7098; 4208-2331",heroconsultora@speedy.com.ar,1372 PICHINCHA,Comuna 3,San Cristobal,Edesur,,,,"445"
-58.4784777134432,-34.5421261740059,NTRA SE¥ORA DE POMPEYA,PICO,2860/64,COEN VERONICA,"155-119-9964;4554-3855",verocoen@yahoo.com.ar,2860/64 PICO,Comuna 12,Saavedra,Edenor,,,,"446"
-58.515043371236,-34.6425864969156,HOGAR SAN NICOLAS,PIERES,"238",HERMIDA DIEGO RODOLFO,"1565206678",diego_hermida72@yahoo.com.ar,238 PIERES,Comuna 9,Liniers,Edesur,"14",NO,,"447"
-58.4671995795295,-34.5803002786308,PLAZA MAYOR,PLAZA,"1223",CAUMO MARIANO,4632-1736 / 1158,inspeccioninmuebles@yahoo.com.ar,1223 PLAZA,Comuna 15,Villa Ortuzar,Edenor,,,,"448"
-58.4705557808649,-34.638503647523,SANTA ROSA,PORTELA,"571",LIZASO ESTEBAN,"155-057-4121;4302-3345",hg_argentina@yahoo.com.ar,571 PORTELA,Comuna 9,Parque Avellaneda,Edesur,S/D,NO,,"449"
-58.4711202272451,-34.6372035128866,GONIGRA S.R.L.,PORTELA,"447",MATIAS SUSANA G.,"155-998-5840;4573-5619",matiassusana@yahoo.com.ar,447 PORTELA,Comuna 9,Parque Avellaneda,Edesur,,,,"450"
-58.4727252730887,-34.633613184665,RES. PARA ABUELAS NADIR,PORTELA,"133",LIZASO ESTEBAN,"155-057-4121;4302-3345",hg_argentina@yahoo.com.ar,133 PORTELA,Comuna 10,Floresta,Edesur,S/D,NO,,"451"
-58.4220627474767,-34.6072222775526,HOGAR POTOSI S.R.L.,POTOSI,"3943",CALBO PABLO DANIEL,4782-3356     155-503-7304,ingpablocalbo@yahoo.com.ar,3943 POTOSI,Comuna 5,Almagro,Edesur,,,,"452"
-58.4227247636474,-34.6073136742461,FERNANDEZ DE ENCISO SRL,POTOSI,"3990",MARASCO JOSE ENRIQUE,4629-2905 1554704530,jemarasco@hotmail.com,3990 POTOSI,Comuna 5,Almagro,Edesur,"34",NO,,"453"
-58.4276262970848,-34.6076218240012,INST. GER. CASA DEL SOL  AÑOS DORADOS S.R.L.,PRINGLES,377/79,RODRIGUEZ JOSE MARIA,15-6115-7062,josmar812003@yahoo.com.ar,377/79 PRINGLES,Comuna 5,Almagro,Edesur,,,,"454"
-58.4273653625606,-34.6047922614444,SAN BLAS II,PRINGLES,"635",SANGLAR GABRIEL,,sanglarcollado@gmail.com,635 PRINGLES,Comuna 5,Almagro,Edesur,,,,"455"
-58.4499886705084,-34.6116160535101,RES. GER. MODELO DE BUENOS AIRES S.R.L.,PUJOL,"961",GARCÖA NORBERTO G.,,ngarcia@gmasociados.com.ar,961 PUJOL,Comuna 6,Caballito,Edesur,,,,"456"
-58.427958013785,-34.6114686490628,VILLA DEL SOL,QUERANDIES,"4340",LIZASO ESTEBAN,"155-057-4121;4302-3345",hg_argentina@yahoo.com.ar,4340 QUERANDIES,Comuna 5,Almagro,Edesur,S/D,NO,,"457"
-58.423482674842,-34.6127740491908,GER. PLAZA DEL SOL,QUINTINO BOCAYUVA,"18",COLLADO RODRIGO,155-893-8506,sanglarcollado@gmail.com,"18 BOCAYUVA, QUINTINO",Comuna 5,Almagro,Edesur,,,CAMBIO DE REPRESENTANTE TÉCNICO,"458"
-58.4701630081936,-34.633286605261,HAYDEE ANGELICA PEREZ,QUIRNO,162/4,CASTA¥O JOSE,"1563300777",ingecoar@yahoo.com.ar,162/4 QUIRNO,Comuna 7,Flores,Edesur,,,,"459"
-58.4708029385037,-34.6318669304872,RES. FAMILY,QUIRNO,"52",MINOTTI CARLOS AGUSTÖN,4523-4889,carlosminotti@yahoo.com.ar,52 QUIRNO,Comuna 7,Flores,Edesur,S/D,NO,,"460"
-58.4379185252297,-34.5971492609438,SUSANA ELISA SAJNIN,RAMIREZ DE VELAZCO JUAN,"646",SUAREZ ALEJANDRO D.,"1565345189",ing.alejandrosuarez@yahoo.com.ar,"646 RAMIREZ DE VELASCO, JUAN",Comuna 15,Villa Crespo,Edesur,,,,"461"
-58.480480054834,-34.6165680245214,ARANGUREN,R. ESCALADA DE SAN MARTIN,"3075",SOUTO EDUARDO,154-141-4077,eduardosouto@speedy.com.ar,"3075 ESCALADA DE SAN MARTIN, R.",Comuna 11,Villa Santa Rita,Edesur,,,CAMBIO DE REPRESENTANTE TÉCNICO,"462"
-58.4975313477181,-34.6018550298024,RES. SAN NICOLAS,RICARDO GUTIERREZ,"3366",BOURET CARLOS,4631-8409,cabouret@gmail.com,"3366 GUTIERREZ, RICARDO",Comuna 11,Vlla Del Parque,Edesur,,,,"463"
-58.4372446986814,-34.6202311388405,RIGLOS,RIGLOS,"135",LIZASO ESTEBAN,"155-057-4121;4302-3345",hg_argentina@yahoo.com.ar,135 RIGLOS,Comuna 6,Caballito,Edesur,S/D,NO,,"464"
-58.4615479582107,-34.6318374270378,RES. GER. SAN JOSE,RIVERA INDARTE,"249",CARO MARIO DIONISIO,57763475 // 15-4049-9605,"caro@camoar.gov.ar; mariocaro@aol.com.ar",249 RIVERA INDARTE AV.,Comuna 7,Flores,Edesur,"17",NO,,"465"
-58.5274059292451,-34.611489942963,RES. GER. SANTA BERNARDITA,RODRIGO DE IBARROLA,"3486",LIZASO ESTEBAN,"155-057-4121;4302-3345",hg_argentina@yahoo.com.ar,"3486 IBARROLA, RODRIGO de",Comuna 11,Villa Devoto,Edesur,S/D,NO,,"466"
-58.5061165120521,-34.637904758458,JAVIER ORLANDO RIZZO,RUIZ DE LOS LLANOS,"52",FEBRERO LUCIANO,15-6471-4621 -  39681325,lucianofebrero@gmail.com,52 RUIZ DE LOS LLANOS,Comuna 10,Villa Luro,Edesur,,,,"467"
-58.4217414561657,-34.6347043608452,GER.S PRIVADOS DON BOSCO S.R.L.,SALCEDO,"4158",DIAZ CORIA BERNABE GUIDO,"1560934814",info@safetyargentina.com,4158 SALCEDO,Comuna 5,Boedo,Edesur,"26",NO,,"468"
-58.3781707525612,-34.6493726278565,CENTRO INTEGRAL DE GERIATRIA SRL,SAN ANTONIO,"611",RIZZO MAXIMILIANO RAéL,4632-6031,inspeccioninmuebles@yahoo.com.ar,611 SAN ANTONIO,Comuna 4,Barracas,Edesur,,,,"469"
-58.3766733469117,-34.6530834664274,SANTA ISABEL,SAN ANTONIO,"948",ADRIANA MU¥IZ,"1561554283",aimuniz@hot.mail.com,948 SAN ANTONIO,Comuna 4,Barracas,Edesur,,,,"470"
-58.4670563481383,-34.6043780421359,SAN BLAS I,SAN BLAS,"1772",COLLADO RODRIGO,155-893-8506,sanglarcollado@gmail.com,1772 SAN BLAS,Comuna 11,Villa Gral. Mitre,Edesur,,,CAMBIO DE REPRESENTANTE TÉCNICO,"471"
-58.5105236504672,-34.6321657850803,HOGAR SAN BLAS,SAN BLAS,"5550",LATAPIE LILIANA BEATRIZ,"155-414-8082;4303-1804 int.6",lblatapie@yahoo.com.ar,5550 SAN BLAS,Comuna 10,Villa Luro,Edesur,,,,"472"
-58.3855172773369,-34.632077593389,SAN JOSE SRL,SAN JOSE,2013/17,MINOTTI CARLOS AGUSTÖN,4523-4889,carlosminotti@yahoo.com.ar,2013/17 SAN JOSE,Comuna 1,Constitución,Edesur,S/D,NO,,"473"
-58.3854905308662,-34.6307449606779,GERIMAR S.R.L.,SAN JOSE,"1870",CARNEVALE MABEL,5252-0909 / / 1552474239,arquitecta.mc@gmail.com,1870 SAN JOSE,Comuna 1,Constitución,Edesur,,,,"474"
-58.4044782031064,-34.5999084697943,RES. GER. OLDMAN SA,SAN LUIS,"2726",GARCÖA NORBERTO G.,,ngarcia@gmasociados.com.ar,2726 SAN LUIS,Comuna 3,Balvanera,Edesur,,,,"475"
-58.4935506980205,-34.5970698112607,BAFFICO HORACIO Y TORINO GUILLERMO,SAN MARTIN,"5370",MOSQUERA ADRIAN HUGO,155-990-7241,ahmosquera@yahoo.com.ar,5370 SAN MARTIN,Comuna 11,Vlla Del Parque,Edesur,,,,"476"
-58.4863067036003,-34.6206309012243,LE BOSQUET DE PICDAN S.R.L,SAN NICOLAS,"1278",CERVERA ROBERTO HUGO,4545-7331,r_cervera@yahoo.com,1278 SAN NICOLAS,Comuna 11,Villa Santa Rita,Edesur,"40",SI,HELADERA Y LAMPARAS,"477"
-58.4786708413471,-34.6309128062805,JUAN ANTONIO ALVAREZ FANEGO,SAN NICOLAS,"159",CARNEVALE MABEL,5252-0909 / / 1552474239,arquitecta.mc@gmail.com,159 SAN NICOLAS,Comuna 10,Floresta,Edesur,,,,"478"
-58.4783024321808,-34.6319554014441,RES. GER. MI DULCE HOGAR DE ROMINA PAOLA AISEN,SAN NICOLAS,"84",MINOTTI CARLOS AGUSTÖN,4523-4889,carlosminotti@yahoo.com.ar,84 SAN NICOLAS,Comuna 10,Floresta,Edesur,S/D,NO,,"479"
-58.4743189468682,-34.6432032599996,GAVILAN,SAN PEDRO,"3958",ADRIANA MU¥IZ,"1561554283",aimuniz@hot.mail.com,3958 SAN PEDRO,Comuna 9,Parque Avellaneda,Edesur,,,,"480"
-58.4755336336129,-34.6440524029136,ESTABLECIMIENTO GER. STELLA MARIS,SAN PEDRO,"4060",PEREYRA MIGUEL ANGEL,"44821521",miguel_pereyra@yahoo.com,4060 SAN PEDRO,Comuna 9,Parque Avellaneda,Edesur,,,,"481"
-58.5004761397371,-34.6179072929433,CANALEJAS,SANABRIA,2021/23,LIZASO ESTEBAN,"155-057-4121;4302-3345",hg_argentina@yahoo.com.ar,2021/23 SANABRIA,Comuna 10,Monte Castro,Edesur,S/D,NO,,"482"
-58.5099506441006,-34.6069459778605,GER. EL HUERTO,SANABRIA,"3235",GRIFFO MATIAS,155-339-2274,mgriffo_2000@yahoo.com,3235 SANABRIA,Comuna 11,Villa Devoto,Edesur,,,CAMBIO DE REPRESENTANTE TÉCNICO,"483"
-58.5119156699311,-34.605687741786,RES. INTEGRAL MODELO DEL FUTURO,SANABRIA,3420/24,DIAZ HUGO ALBERTO,15-5185-5535,proteccionempresaria@hotmail.com,3420/24 SANABRIA,Comuna 11,Villa Devoto,Edesur,,,CAMBIO DE REPRESENTANTE TÉCNICO,"484"
-58.5103385498175,-34.6066500246004,GER. SANABRIA,SANABRIA,"3278",FEDERICO SANTIAGO RAUL,4506-5101 / 15-5654-7317,"info@naos-arquitectura.com.ar; sfederico.arq@gmail.com",3278 SANABRIA,Comuna 11,Villa Devoto,Edesur,,,,"485"
-58.4025949754994,-34.5841156245066,RES. BUSTAMANTE S.A.,SANCHEZ DE BUSTAMANTE,"2534",LIZASO ESTEBAN,"155-057-4121;4302-3345",hg_argentina@yahoo.com.ar,2534 SANCHEZ DE BUSTAMANTE,Comuna 2,Recoleta,Edenor,S/D,NO,,"486"
-58.4127325372595,-34.6160004178047,MODELO SANCHEZ DE LORIA SRL,SANCHEZ DE LORIA,548/550,LIZASO ESTEBAN,"155-057-4121;4302-3345",hg_argentina@yahoo.com.ar,548/550 SANCHEZ DE LORIA,Comuna 3,Balvanera,Edesur,S/D,NO,,"487"
-58.3803393727318,-34.6498181174957,GER. CASA GRANDE,SANTA MAGDALENA,615/17,ADRIANA MU¥IZ,"1561554283",aimuniz@hot.mail.com,615/17 SANTA MAGDALENA,Comuna 4,Barracas,Edesur,,,,"488"
-58.4430507550823,-34.6369304697991,RES. MONTERREY III,SANTANDER,"1634",MINOTTI CARLOS AGUSTÖN,4523-4889,carlosminotti@yahoo.com.ar,1634 SANTANDER,Comuna 7,Parque Chacabuco,Edesur,S/D,NO,,"489"
-58.4851858444726,-34.6037648538907,GAMALIEL SA,SANTO TOME,"2746",SUCHMON LEANDRO,15-5428-5184                           4901-6193/*,leandro@em-s.com.ar,2746 SANTO TOME,Comuna 11,Vlla Del Parque,Edesur,"11",NO,,"490"
-58.509752875542,-34.6178195234141,HOGAR DE ABUELOS ALMA Y CIELO,SANTO TOME,"4878",CAUMO MARIANO,4632-1736 / 1158,inspeccioninmuebles@yahoo.com.ar,4878 SANTO TOME,Comuna 10,Monte Castro,Edesur,,,,"491"
-58.4904541065085,-34.6067170012796,EL RINCON DE LOS ABUELOS,SANTO TOME,"3179",CARNEVALE MABEL,5252-0909 / / 1552474239,arquitecta.mc@gmail.com,3179 SANTO TOME,Comuna 11,Vlla Del Parque,Edesur,,,,"492"
-58.437947150392,-34.5729405833637,ANTAEUS,SANTOS DUMONT,"2338",MAGGIO FABIAN ALEJANDRO,155-0294-566,fmaggio@speedy.com.ar,"2338 DUMONT, SANTOS",Comuna 14,Palermo,Edenor,,,,"493"
-58.4481917544487,-34.5847362742759,NUESTRO HOGAR,SANTOS DUMONT,"3640",CLAUDEPIERRE JAVIER SIGFRIDO,"1160492860",jsclaudepierre@yahoo.com.ar,"3640 DUMONT, SANTOS",Comuna 15,Chacarita,Edenor,,,,"494"
-58.489955689663,-34.6315640262939,INST. GER. GENESIS,SARACHAGA,4467/69,RODRIGUEZ JOSE MARIA,15-6115-7062,josmar812003@yahoo.com.ar,4467/69 SARACHAGA,Comuna 10,Velez Sarsfield,Edesur,,,,"495"
-58.3970022242849,-34.606018243858,SOCIEDAD DE SAN JOSE,SARMIENTO,"2130",GRIFFO MATIAS NICOLAS,155-339-2274,mgriffo_2000@yahoo.com,2130 SARMIENTO,Comuna 3,Balvanera,Edesur,,,CAMBIO DE REPRESENTANTE TÉCNICO,"496"
-58.473178703341,-34.6765168913885,EL HOGAR DE DORA,SAYOS,"5554",MINOTTI CARLOS AGUSTÖN,4523-4889,carlosminotti@yahoo.com.ar,5554 SAYOS,Comuna 8,Villa Lugano,Edesur,S/D,NO,CORTES PROLONGADOS LES PROVEE UN GRUPO EDESUR,"497"
-58.4288978627066,-34.6240353137877,SENILLOSA,SENILLOSA,617/619,MINOTTI CARLOS AGUSTÖN,4523-4889,carlosminotti@yahoo.com.ar,617/619 SENILLOSA,Comuna 6,Caballito,Edesur,S/D,NO,,"498"
-58.429618357009,-34.6199001034118,RES. GER. LUZ DE VIDA,SENILLOSA,"324",LIZASO ESTEBAN,"155-057-4121;4302-3345",hg_argentina@yahoo.com.ar,324 SENILLOSA,Comuna 6,Caballito,Edesur,S/D,NO,,"499"
-58.4287155335259,-34.6249244918592,ESTABLECIMIENTO GER. DULCE HOGAR 2,SENILLOSA,"677",LIZASO ESTEBAN,"155-057-4121;4302-3345",hg_argentina@yahoo.com.ar,677 SENILLOSA,Comuna 6,Caballito,Edesur,S/D,NO,,"500"
-58.4325076652223,-34.5901803209379,NUEVA SERRANIA S.R.L.,SERRANO,"1378",MINOTTI CARLOS AGUSTÖN,4523-4889,carlosminotti@yahoo.com.ar,1378 SERRANO,Comuna 14,Palermo,Edenor,S/D,NO,,"501"
-58.4407281961083,-34.5953134385962,ROSSJANSKI SILVIO DANIEL,SERRANO,"627",SUAREZ ALEJANDRO D.,"1565345189",ing.alejandrosuarez@yahoo.com.ar,627 SERRANO,Comuna 15,Villa Crespo,Edesur,,,,"502"
-58.5051815512236,-34.6502447338253,RES. GER. LA FE,S. GARCIA GDE DE ZEQUEIRA,"6088",LIZASO ESTEBAN,"155-057-4121;4302-3345",hg_argentina@yahoo.com.ar,"6088 GARCIA GRANDE DE ZEQUEIRA, SEVERO",Comuna 9,Mataderos,Edesur,S/D,NO,,"503"
-58.4375127158346,-34.5769138667176,VULFO S.R.L.,SOLER,"6083",QUINN GUILLERMO,"1560927719",quinnseg1@yahoo.com.ar,6083 SOLER,Comuna 14,Palermo,Edenor,,,,"504"
-58.3787071309135,-34.6210813663691,GER. SAN JUAN,TACUARI,"1115",SUAREZ ALEJANDRO D.,"1565345189",ing.alejandrosuarez@yahoo.com.ar,1115 TACUARI,Comuna 1,Constitución,Edesur,,,,"505"
-58.3767650155558,-34.627513773586,SAN FRANCISCO,TACUARI,"1670",DORADO MARIA GABRIELA,"1535499893",gabrieldoradohys@aconra.com.ar,1670 TACUARI,Comuna 1,Constitución,Edesur,,,,"506"
-58.3730749257123,-34.6312643529499,RES. LOPEZ MIC,TACUARI,"2049",DIAZ CORIA BERNABE GUIDO,"1560934814",info@safetyargentina.com,2049 TACUARI,Comuna 4,Barracas,Edesur,"24",NO,,"507"
-58.5175728437868,-34.6410635431516,RES. CASA DE LOS ABUELOS,TAFI,"162",HERMIDA DIEGO RODOLFO,"1565206678",diego_hermida72@yahoo.com.ar,162 TAFI,Comuna 9,Liniers,Edesur,"9",NO,,"508"
-58.4772064482213,-34.6403484500969,MARGARITA ESPINOZA,TANDIL,"3824",ESPINOSA JOSE CARLOS,156-050-7553,ing.josecespinosa@gmail.com,3824 TANDIL,Comuna 9,Parque Avellaneda,Edesur,,,,"509"
-58.4618415453706,-34.6349304225123,RES. EBEN-EZER,TANDIL,"2508",LIZASO ESTEBAN,"155-057-4121;4302-3345",hg_argentina@yahoo.com.ar,2508 TANDIL,Comuna 7,Flores,Edesur,S/D,NO,,"510"
-58.4889068646802,-34.6507594306724,LA CASA DE AMANDA,TANDIL,"4870",MINOTTI CARLOS AGUSTÖN,4523-4889,carlosminotti@yahoo.com.ar,4870 TANDIL,Comuna 9,Mataderos,Edesur,S/D,NO,,"511"
-58.4216801600407,-34.6296377419773,RES. GER. SOLANGE,TARIJA,"4072",ARIAS ANDRES LEONARDO,,hg_argentina@yahoo.com.ar,4072 TARIJA,Comuna 5,Boedo,Edesur,S/D,NO,,"512"
-58.4205610202529,-34.6060550851292,ALERIAN,TTE GRAL JUAN D. PERON,3850/54,GIORDANO MARTIN,"1562469328",gestiones1@yahoo.com.ar,"3850/54 PERON, JUAN DOMINGO, TTE. GENERAL",Comuna 5,Almagro,Edesur,,,,"513"
-58.4462197235743,-34.5704551270251,GER. SAN ROMAN S.R.L.,TEODORO GARCIA,"2458",BLANCO RUBEN JOSE,"154-947-1562; 4855-6858","consult-art@fibertel.com.ar, recepcion.consult-art@fibertel.com.ar,info@consult-art.com.ar","2458 GARCIA, TEODORO",Comuna 13,Colegiales,Edenor,,,MAIL RECHAZADO,"514"
-58.4506363384393,-34.5776538701513,GER. STAR EN CASA,TEODORO GARCIA,"3222",COEN VERONICA,"155-119-9964;4554-3855",verocoen@yahoo.com.ar,"3222 GARCIA, TEODORO",Comuna 13,Colegiales,Edenor,,,,"515"
-58.44977541371,-34.5760314382459,SAN MARCOS,TEODORO GARCIA,"3056",LIZASO ESTEBAN,"155-057-4121;4302-3345",hg_argentina@yahoo.com.ar,"3056 GARCIA, TEODORO",Comuna 13,Colegiales,Edenor,S/D,NO,,"516"
-58.4641809931731,-34.6112396716122,BAFFICO HORACIO Y TORINO GUILLERMO,TERRERO,"1475",RIZZO MAXIMILIANO RAéL,4632-6031,inspeccioninmuebles@yahoo.com.ar,1475 TERRERO,Comuna 11,Villa Gral. Mitre,Edesur,,,,"517"
-58.4662015495583,-34.6086434143716,GER. MARIA LUZ BRILLAND,TERRERO,"1740",ROMERO NESTOR DANIEL,"1559619164",nestoromero5@yahoo.com.ar,1740 TERRERO,Comuna 11,Villa Gral. Mitre,Edesur,,,,"518"
-58.4248383125555,-34.5837359566122,HOGAR DE ANCIANOS ABU,THAMES,"2225",CERVERA ROBERTO HUGO,4545-7331,r_cervera@yahoo.com,2225 THAMES,Comuna 14,Palermo,Edenor,,BAJA,CAMBIO DE REPRESENTANTE TÉCNICO,"519"
-58.5107184949214,-34.6095500954927,HOGAR DE ABUELOS ALMA Y CIELO,TINOGASTA,"4536",CERVERA ROBERTO HUGO,4545-7331,r_cervera@yahoo.com,4536 TINOGASTA,Comuna 11,Villa Devoto,Edesur,"16",NO,,"520"
-58.5218389487243,-34.6177674608261,RES. PARA MAYORES NTRAS RAICES,TINOGASTA,"5373",BRAVO GUSTAVO RAUL,4542-6811/15-3353-4880,"info@technologyprevingea.com.ar; previngea@gmail.com",5373 TINOGASTA,Comuna 10,Villa Real,Edesur,,,,"521"
-58.4224897055465,-34.6246665128485,ASELFU S.R.L,TOTORAL,"994",MARASCO JOSE ENRIQUE,4629-2905,jemarasco@hotmail.com,994 TOTORAL,Comuna 5,Boedo,Edesur,"33",NO,,"522"
-58.418072524989,-34.5987679909833,SAN GERVASIO SRL,TUCUMAN,"3738",MINOTTI CARLOS AGUSTÖN,4523-4889,carlosminotti@yahoo.com.ar,3738 TUCUMAN,Comuna 5,Almagro,Edesur,S/D,SI,"ASCENSOR, BOMBAS Y HELADERAS","523"
-58.4166562999302,-34.5991622381304,LA CASA DE TUCUMAN,TUCUMAN,"3640",SUCHMON LEANDRO,15-5428-5184                           4901-6193/*,leandro@em-s.com.ar,3640 TUCUMAN,Comuna 5,Almagro,Edesur,"12",NO,,"524"
-58.4184362662099,-34.5986667207812,GER. SAN FRANCISCO,TUCUMAN,"3764",ROMAGNOLI,"4301-6695;155-248-7652",gustavojromagnoli@speedy.com.ar,3764 TUCUMAN,Comuna 5,Almagro,Edesur,,,,"525"
-58.4194190413565,-34.5983140377813,DANIEL H PICCOLI ESTABLEC GER. SAN GERVASIO,TUCUMAN,"3837",FEIJOO CARLOS NORBERTO,155-185-3261,cnf464@gmail.com,3837 TUCUMAN,Comuna 5,Almagro,Edesur,,,CAMBIO DE REPRESENTANTE TÉCNICO,"526"
-58.4164838908503,-34.5991151144786,LA ROSA BLANCA,TUCUMAN,"3629",BADALUCCO MARIANO,,consultoraprevention@gmail.com,3629 TUCUMAN,Comuna 5,Almagro,Edesur,S/D,NO,,"527"
-58.5141313240319,-34.6396860671866,TUYU,TUYU,"36",MINOTTI CARLOS AGUSTÖN,4523-4889,carlosminotti@yahoo.com.ar,36 TUYU,Comuna 9,Liniers,Edesur,S/D,SI,CUBRE LAS NECESIDADES BASICAS DEL ESTABLECIMIENTO,"528"
-58.5275380368351,-34.6448640416778,HOGAR SAN NICOLAS,TUYUTI,"7220",HERMIDA DIEGO RODOLFO,"1565206678",diego_hermida72@yahoo.com.ar,7220 TUYUTI,Comuna 9,Liniers,Edesur,"13",NO,,"529"
-58.4138348484164,-34.5828227095002,FINOSA S.R.L,UGARTECHE,"2815",MINOTTI CARLOS AGUSTÖN,4523-4889,carlosminotti@yahoo.com.ar,2815 UGARTECHE,Comuna 14,Palermo,Edenor,S/D,NO,,"530"
-58.4318837428019,-34.587271586966,INST. GER. DR. SILVA,URIARTE,"1626",LIZASO ESTEBAN,"155-057-4121;4302-3345",hg_argentina@yahoo.com.ar,1626 URIARTE,Comuna 14,Palermo,Edenor,S/D,NO,,"531"
-58.387393225294,-34.5943524816584,ASISGER S.R.L.,URUGUAY,"1216",PADILLA JAVIER SANTIAGO,4961-9056,gestion@capacitarweb.com.ar,1216 URUGUAY,Comuna 2,Recoleta,Edesur,,,,"532"
-58.4859400740379,-34.5671214932512,SAN CONO,VALDENEGRO,"3030",SOUTO EDUARDO,154-141-4077,eduardosouto@speedy.com.ar,3030 VALDENEGRO,Comuna 12,Villa Urquiza,Edenor,,,CAMBIO DE REPRESENTANTE TÉCNICO,"533"
-58.4419833190175,-34.6251699752306,VICTORIA,VALLE,"1020",LIZASO ESTEBAN,"155-057-4121;4302-3345",hg_argentina@yahoo.com.ar,1020 VALLE,Comuna 6,Caballito,Edesur,S/D,NO,,"534"
-58.5198115258599,-34.5995055946036,LA MAISON BLANC DE EDUARDO SANTIAGO GROSSO,VALLEJOS,"4419",MINOTTI CARLOS AGUSTÖN,4523-4889,carlosminotti@yahoo.com.ar,4419 VALLEJOS,Comuna 11,Villa Devoto,Edesur,S/D,NO,,"535"
-58.5059949836027,-34.6035876489257,GER. GERUSIA II,VARELA,"3845",VOLONT NESTOR HUGO,,volontenestor@gmail.com,3845 VARELA,Comuna 11,Villa Devoto,Edesur,,,,"536"
-58.4745928530987,-34.5397635685117,AMANECER,VEDIA,"2371",COEN VERONICA,"155-119-9964;4554-3855",verocoen@yahoo.com.ar,2371 VEDIA,Comuna 13,Nuñez,Edenor,,,,"537"
-58.4842485082303,-34.5433238969693,DEL SOLAR,VEDIA,"3250",LIZASO ESTEBAN,"155-057-4121;4302-3345",hg_argentina@yahoo.com.ar,3250 VEDIA,Comuna 12,Saavedra,Edenor,S/D,NO,,"538"
-58.3968144928809,-34.6153532583713,ESTABLECIMIENTO GER. PRINCESS,VENEZUELA,2142/48,LIZASO ESTEBAN,"155-057-4121;4302-3345",hg_argentina@yahoo.com.ar,2142/48 REPUBLICA BOLIVARIANA DE VENEZUELA,Comuna 3,Balvanera,Edesur,S/D,NO,,"539"
-58.4447243026878,-34.6245974992083,EN FLIA. DE MARIA CRISTINA BALLESTEROS,VICTOR MARTINEZ,"241",MINOTTI CARLOS AGUSTÖN,4523-4889,carlosminotti@yahoo.com.ar,"241 MARTINEZ, VICTOR",Comuna 6,Caballito,Edesur,,,,"540"
-58.4605321784524,-34.5639042729597,DE LOS SANTOS,VIDAL,"2127",ROMAGNOLI,"4301-6695;155-248-7652",gustavojromagnoli@speedy.com.ar,2127 VIDAL,Comuna 13,Belgrano,Edenor,,,,"541"
-58.4652539117319,-34.5585808464439,GER. DEL SOL,VIDAL,"2750",MINOTTI CARLOS AGUSTÖN,4797-8032,carlosminotti@yahoo.com.ar,2750 VIDAL,Comuna 13,Belgrano,Edenor,S/D,NO,,"542"
-58.471624299473,-34.5513945648929,AVRIL,VIDAL,"3568",ADRIANA MU¥IZ,"1561554283",aimuniz@hot.mail.com,3568 VIDAL,Comuna 13,Nuñez,Edenor,,,,"543"
-58.4639986711658,-34.5600371553907,HOGAR MODELO VIDAL,VIDAL,"2560",RODRIGUEZ JOSE MARIA,15-6115-7062,josmar812003@yahoo.com.ar,2560 VIDAL,Comuna 13,Belgrano,Edenor,,,,"544"
-58.4727805601695,-34.546923496484,"HOGAR GER. BELGRANO ""R""",VILELA,"2672",GRIFFO MATIAS,155-339-2274,mgriffo_2000@yahoo.com,2672 VILELA,Comuna 12,Saavedra,Edenor,"26",NO,,"545"
-58.4548012696457,-34.5721455741999,VIDA DIGNA S.A.,VIRREY ARREDONDO,"2960",MINOTTI CARLOS AGUSTÖN,4523-4889,carlosminotti@yahoo.com.ar,"2960 ARREDONDO, Virrey",Comuna 13,Colegiales,Edenor,S/D,NO,,"546"
-58.3887069125639,-34.6211142098566,RES. GER. SANTA TERESITA,VIRREY CEVALLOS,"1082",ADRIANA MU¥IZ,"1561554283",aimuniz@hot.mail.com,"1082/84 CEVALLOS, Virrey",Comuna 1,Constitución,Edesur,,,,"547"
-58.4659841628599,-34.5732500740592,FAUSTINO LUIS GARCIA,VIRREY DEL PINO,"3599",MINOTTI CARLOS AGUSTÖN,4523-4889,carlosminotti@yahoo.com.ar,"3599 PINO, Virrey del",Comuna 13,Belgrano,Edenor,S/D,NO,,"548"
-58.4517838443964,-34.5698366241148,LIFE AND HEALTH S.R.L.,VIRREY LORETO,"2656",ADRIANA MU¥IZ,"1561554283",aimuniz@hot.mail.com,"2656 LORETO, Virrey",Comuna 13,Colegiales,Edenor,,,,"549"
-58.4662651129461,-34.5493783668391,GUARANI,VUELTA DE OBLIGADO,"3473",LIZASO ESTEBAN,"155-057-4121;4302-3345",hg_argentina@yahoo.com.ar,3473 VUELTA DE OBLIGADO,Comuna 13,Nuñez,Edenor,S/D,NO,,"550"
-58.4680021157555,-34.5714006941588,SAN JOSE,WASHINGTON,"1910",DIAZ CORIA BERNABE GUIDO,"1560934814",info@safetyargentina.com,1910 WASHINGTON,Comuna 13,Belgrano,Edenor,"40",NO,,"551"
-58.4721865976,-34.5664800232999,EL HOGAR DEL SOL,WASHINGTON,"2470",MINOTTI CARLOS AGUSTÖN,4523-4889,carlosminotti@yahoo.com.ar,2470 WASHINGTON,Comuna 13,Belgrano,Edenor,S/D,NO,,"552"
-58.4579829205632,-34.6257786359274,INST NAC DE SERV SOC PARA JUBILADOS Y PENSIONADOS,YERBAL,"1953",GAETA ALBERTO,"4345-1275 ; 4331-0728,","info@seguridadindustrialsrl.com; lotamendi@seguridadindustrialsrl.com",1953 YERBAL,Comuna 7,Flores,Edesur,,,,"553"
-58.4712977844269,-34.6297574249787,GONIGDA S.R.L.,YERBAL,"2972",CARUSO JUAN CARLOS,"1544939173",juanc.caruso@gmail.com,2972 YERBAL,Comuna 7,Flores,Edesur,,,CAMBIO DE REPRESENTANTE TÉCNICO,"554"
-58.445054312285,-34.5650101077573,GER. ZABALA,ZABALA,"1945",ADRIANA MU¥IZ,"1561554283",aimuniz@hot.mail.com,1945 ZABALA,Comuna 13,Belgrano,Edenor,,,,"555"
-58.4510954669834,-34.5704355238918,RES. PARA MAYORES HOGAR GER.,ZABALA,2675/77,BOIDI JOSE MARIA,"4524-2197;4521-7033",jmbseguridad@hotmail.com,2675/77 ZABALA,Comuna 13,Colegiales,Edenor,,,CAMBIO DE REPRESENTANTE TÉCNICO,"556"
-58.4570145388483,-34.6108601335538,FUNDACION DE LA COLECTIVIDAD JAPONESA AUNAR,OROÑO NICASIO,1236/38,DIAZ HUGO ALBERTO,15-5185-5535,proteccionempresaria@hot,1236 OROÑO NICASIO,Comuna 6,Caballito,Edesur,"24",NO,,"557"
-58.433241166597,-34.6106282497543,HOG. CENTRO DE DÍA LAZOS,ARANGUREN JUAN F DR,"167",GOMEZ DANIEL,"1540716629",gomez_daniel28@yahoo.com.ar,167 ARANGUREN JUAN F DR,Comuna 6,Caballito,,"31",NO,,"558"
